{
  "type": "FeatureCollection",
  "features": [
    {
      "type": "Feature",
      "properties": {
        "shop_id": "NLR-HLTH-007",
        "shop_name": "Coastal Choice Fish Stall (Stonehousepet)",
        "risk_level": "High Risk",
        "buffer_radius_m": 250,
        "exposure_zone": "Immediate Bio-Exposure & Odor Vector Zone (250m)"
      },
      "geometry": {
        "type": "Polygon",
        "coordinates": [
          [
            [
              79.989439,
              14.448117
            ],
            [
              79.98936,
              14.448702
            ],
            [
              79.989128,
              14.449247
            ],
            [
              79.98876,
              14.449716
            ],
            [
              79.98828,
              14.450075
            ],
            [
              79.98772,
              14.450301
            ],
            [
              79.98712,
              14.450378
            ],
            [
              79.98652,
              14.450301
            ],
            [
              79.98596,
              14.450075
            ],
            [
              79.98548,
              14.449716
            ],
            [
              79.985112,
              14.449247
            ],
            [
              79.98488,
              14.448702
            ],
            [
              79.984801,
              14.448117
            ],
            [
              79.98488,
              14.447532
            ],
            [
              79.985112,
              14.446987
            ],
            [
              79.98548,
              14.446518
            ],
            [
              79.98596,
              14.446159
            ],
            [
              79.98652,
              14.445933
            ],
            [
              79.98712,
              14.445856
            ],
            [
              79.98772,
              14.445933
            ],
            [
              79.98828,
              14.446159
            ],
            [
              79.98876,
              14.446518
            ],
            [
              79.989128,
              14.446987
            ],
            [
              79.98936,
              14.447532
            ],
            [
              79.989439,
              14.448117
            ]
          ]
        ]
      }
    },
    {
      "type": "Feature",
      "properties": {
        "shop_id": "NLR-HLTH-008",
        "shop_name": "Gouthami Mixed Stall (Stonehousepet)",
        "risk_level": "High Risk",
        "buffer_radius_m": 250,
        "exposure_zone": "Immediate Bio-Exposure & Odor Vector Zone (250m)"
      },
      "geometry": {
        "type": "Polygon",
        "coordinates": [
          [
            [
              79.989451,
              14.448281
            ],
            [
              79.989372,
              14.448866
            ],
            [
              79.98914,
              14.449411
            ],
            [
              79.988772,
              14.44988
            ],
            [
              79.988292,
              14.450239
            ],
            [
              79.987732,
              14.450465
            ],
            [
              79.987132,
              14.450542
            ],
            [
              79.986532,
              14.450465
            ],
            [
              79.985972,
              14.450239
            ],
            [
              79.985492,
              14.44988
            ],
            [
              79.985124,
              14.449411
            ],
            [
              79.984892,
              14.448866
            ],
            [
              79.984813,
              14.448281
            ],
            [
              79.984892,
              14.447696
            ],
            [
              79.985124,
              14.447151
            ],
            [
              79.985492,
              14.446682
            ],
            [
              79.985972,
              14.446323
            ],
            [
              79.986532,
              14.446097
            ],
            [
              79.987132,
              14.44602
            ],
            [
              79.987732,
              14.446097
            ],
            [
              79.988292,
              14.446323
            ],
            [
              79.988772,
              14.446682
            ],
            [
              79.98914,
              14.447151
            ],
            [
              79.989372,
              14.447696
            ],
            [
              79.989451,
              14.448281
            ]
          ]
        ]
      }
    },
    {
      "type": "Feature",
      "properties": {
        "shop_id": "NLR-HLTH-010",
        "shop_name": "Sai Krupa Poultry Stall (Stonehousepet)",
        "risk_level": "High Risk",
        "buffer_radius_m": 250,
        "exposure_zone": "Immediate Bio-Exposure & Odor Vector Zone (250m)"
      },
      "geometry": {
        "type": "Polygon",
        "coordinates": [
          [
            [
              79.987924,
              14.447303
            ],
            [
              79.987845,
              14.447888
            ],
            [
              79.987613,
              14.448433
            ],
            [
              79.987245,
              14.448902
            ],
            [
              79.986765,
              14.449261
            ],
            [
              79.986205,
              14.449487
            ],
            [
              79.985605,
              14.449564
            ],
            [
              79.985005,
              14.449487
            ],
            [
              79.984445,
              14.449261
            ],
            [
              79.983965,
              14.448902
            ],
            [
              79.983597,
              14.448433
            ],
            [
              79.983365,
              14.447888
            ],
            [
              79.983286,
              14.447303
            ],
            [
              79.983365,
              14.446718
            ],
            [
              79.983597,
              14.446173
            ],
            [
              79.983965,
              14.445704
            ],
            [
              79.984445,
              14.445345
            ],
            [
              79.985005,
              14.445119
            ],
            [
              79.985605,
              14.445042
            ],
            [
              79.986205,
              14.445119
            ],
            [
              79.986765,
              14.445345
            ],
            [
              79.987245,
              14.445704
            ],
            [
              79.987613,
              14.446173
            ],
            [
              79.987845,
              14.446718
            ],
            [
              79.987924,
              14.447303
            ]
          ]
        ]
      }
    },
    {
      "type": "Feature",
      "properties": {
        "shop_id": "NLR-HLTH-012",
        "shop_name": "Gouthami Mutton Stall (Stonehousepet)",
        "risk_level": "High Risk",
        "buffer_radius_m": 250,
        "exposure_zone": "Immediate Bio-Exposure & Odor Vector Zone (250m)"
      },
      "geometry": {
        "type": "Polygon",
        "coordinates": [
          [
            [
              79.994745,
              14.447601
            ],
            [
              79.994666,
              14.448186
            ],
            [
              79.994434,
              14.448731
            ],
            [
              79.994066,
              14.4492
            ],
            [
              79.993586,
              14.449559
            ],
            [
              79.993026,
              14.449785
            ],
            [
              79.992426,
              14.449862
            ],
            [
              79.991826,
              14.449785
            ],
            [
              79.991266,
              14.449559
            ],
            [
              79.990786,
              14.4492
            ],
            [
              79.990418,
              14.448731
            ],
            [
              79.990186,
              14.448186
            ],
            [
              79.990107,
              14.447601
            ],
            [
              79.990186,
              14.447016
            ],
            [
              79.990418,
              14.446471
            ],
            [
              79.990786,
              14.446002
            ],
            [
              79.991266,
              14.445643
            ],
            [
              79.991826,
              14.445417
            ],
            [
              79.992426,
              14.44534
            ],
            [
              79.993026,
              14.445417
            ],
            [
              79.993586,
              14.445643
            ],
            [
              79.994066,
              14.446002
            ],
            [
              79.994434,
              14.446471
            ],
            [
              79.994666,
              14.447016
            ],
            [
              79.994745,
              14.447601
            ]
          ]
        ]
      }
    },
    {
      "type": "Feature",
      "properties": {
        "shop_id": "NLR-HLTH-020",
        "shop_name": "Annapurna Poultry Stall (Santhapet)",
        "risk_level": "Very High Risk",
        "buffer_radius_m": 250,
        "exposure_zone": "Immediate Bio-Exposure & Odor Vector Zone (250m)"
      },
      "geometry": {
        "type": "Polygon",
        "coordinates": [
          [
            [
              79.980721,
              14.437939
            ],
            [
              79.980642,
              14.438524
            ],
            [
              79.98041,
              14.439069
            ],
            [
              79.980042,
              14.439538
            ],
            [
              79.979562,
              14.439897
            ],
            [
              79.979002,
              14.440123
            ],
            [
              79.978402,
              14.4402
            ],
            [
              79.977802,
              14.440123
            ],
            [
              79.977242,
              14.439897
            ],
            [
              79.976762,
              14.439538
            ],
            [
              79.976394,
              14.439069
            ],
            [
              79.976162,
              14.438524
            ],
            [
              79.976083,
              14.437939
            ],
            [
              79.976162,
              14.437354
            ],
            [
              79.976394,
              14.436809
            ],
            [
              79.976762,
              14.43634
            ],
            [
              79.977242,
              14.435981
            ],
            [
              79.977802,
              14.435755
            ],
            [
              79.978402,
              14.435678
            ],
            [
              79.979002,
              14.435755
            ],
            [
              79.979562,
              14.435981
            ],
            [
              79.980042,
              14.43634
            ],
            [
              79.98041,
              14.436809
            ],
            [
              79.980642,
              14.437354
            ],
            [
              79.980721,
              14.437939
            ]
          ]
        ]
      }
    },
    {
      "type": "Feature",
      "properties": {
        "shop_id": "NLR-HLTH-023",
        "shop_name": "National Mutton Stall (Santhapet)",
        "risk_level": "High Risk",
        "buffer_radius_m": 250,
        "exposure_zone": "Immediate Bio-Exposure & Odor Vector Zone (250m)"
      },
      "geometry": {
        "type": "Polygon",
        "coordinates": [
          [
            [
              79.985983,
              14.44226
            ],
            [
              79.985904,
              14.442845
            ],
            [
              79.985672,
              14.44339
            ],
            [
              79.985304,
              14.443859
            ],
            [
              79.984824,
              14.444218
            ],
            [
              79.984264,
              14.444444
            ],
            [
              79.983664,
              14.444521
            ],
            [
              79.983064,
              14.444444
            ],
            [
              79.982504,
              14.444218
            ],
            [
              79.982024,
              14.443859
            ],
            [
              79.981656,
              14.44339
            ],
            [
              79.981424,
              14.442845
            ],
            [
              79.981345,
              14.44226
            ],
            [
              79.981424,
              14.441675
            ],
            [
              79.981656,
              14.44113
            ],
            [
              79.982024,
              14.440661
            ],
            [
              79.982504,
              14.440302
            ],
            [
              79.983064,
              14.440076
            ],
            [
              79.983664,
              14.439999
            ],
            [
              79.984264,
              14.440076
            ],
            [
              79.984824,
              14.440302
            ],
            [
              79.985304,
              14.440661
            ],
            [
              79.985672,
              14.44113
            ],
            [
              79.985904,
              14.441675
            ],
            [
              79.985983,
              14.44226
            ]
          ]
        ]
      }
    },
    {
      "type": "Feature",
      "properties": {
        "shop_id": "NLR-HLTH-024",
        "shop_name": "Gouthami Mutton Stall (Santhapet)",
        "risk_level": "Very High Risk",
        "buffer_radius_m": 250,
        "exposure_zone": "Immediate Bio-Exposure & Odor Vector Zone (250m)"
      },
      "geometry": {
        "type": "Polygon",
        "coordinates": [
          [
            [
              79.982141,
              14.439015
            ],
            [
              79.982062,
              14.4396
            ],
            [
              79.98183,
              14.440145
            ],
            [
              79.981462,
              14.440614
            ],
            [
              79.980982,
              14.440973
            ],
            [
              79.980422,
              14.441199
            ],
            [
              79.979822,
              14.441276
            ],
            [
              79.979222,
              14.441199
            ],
            [
              79.978662,
              14.440973
            ],
            [
              79.978182,
              14.440614
            ],
            [
              79.977814,
              14.440145
            ],
            [
              79.977582,
              14.4396
            ],
            [
              79.977503,
              14.439015
            ],
            [
              79.977582,
              14.43843
            ],
            [
              79.977814,
              14.437885
            ],
            [
              79.978182,
              14.437416
            ],
            [
              79.978662,
              14.437057
            ],
            [
              79.979222,
              14.436831
            ],
            [
              79.979822,
              14.436754
            ],
            [
              79.980422,
              14.436831
            ],
            [
              79.980982,
              14.437057
            ],
            [
              79.981462,
              14.437416
            ],
            [
              79.98183,
              14.437885
            ],
            [
              79.982062,
              14.43843
            ],
            [
              79.982141,
              14.439015
            ]
          ]
        ]
      }
    },
    {
      "type": "Feature",
      "properties": {
        "shop_id": "NLR-HLTH-025",
        "shop_name": "National Mutton Stall (Santhapet)",
        "risk_level": "High Risk",
        "buffer_radius_m": 250,
        "exposure_zone": "Immediate Bio-Exposure & Odor Vector Zone (250m)"
      },
      "geometry": {
        "type": "Polygon",
        "coordinates": [
          [
            [
              79.982798,
              14.440202
            ],
            [
              79.982719,
              14.440787
            ],
            [
              79.982487,
              14.441332
            ],
            [
              79.982119,
              14.441801
            ],
            [
              79.981639,
              14.44216
            ],
            [
              79.981079,
              14.442386
            ],
            [
              79.980479,
              14.442463
            ],
            [
              79.979879,
              14.442386
            ],
            [
              79.979319,
              14.44216
            ],
            [
              79.978839,
              14.441801
            ],
            [
              79.978471,
              14.441332
            ],
            [
              79.978239,
              14.440787
            ],
            [
              79.97816,
              14.440202
            ],
            [
              79.978239,
              14.439617
            ],
            [
              79.978471,
              14.439072
            ],
            [
              79.978839,
              14.438603
            ],
            [
              79.979319,
              14.438244
            ],
            [
              79.979879,
              14.438018
            ],
            [
              79.980479,
              14.437941
            ],
            [
              79.981079,
              14.438018
            ],
            [
              79.981639,
              14.438244
            ],
            [
              79.982119,
              14.438603
            ],
            [
              79.982487,
              14.439072
            ],
            [
              79.982719,
              14.439617
            ],
            [
              79.982798,
              14.440202
            ]
          ]
        ]
      }
    },
    {
      "type": "Feature",
      "properties": {
        "shop_id": "NLR-HLTH-027",
        "shop_name": "Sri Venkateswara Poultry Stall (Santhapet)",
        "risk_level": "Very High Risk",
        "buffer_radius_m": 250,
        "exposure_zone": "Immediate Bio-Exposure & Odor Vector Zone (250m)"
      },
      "geometry": {
        "type": "Polygon",
        "coordinates": [
          [
            [
              79.981542,
              14.43945
            ],
            [
              79.981463,
              14.440035
            ],
            [
              79.981231,
              14.44058
            ],
            [
              79.980863,
              14.441049
            ],
            [
              79.980383,
              14.441408
            ],
            [
              79.979823,
              14.441634
            ],
            [
              79.979223,
              14.441711
            ],
            [
              79.978623,
              14.441634
            ],
            [
              79.978063,
              14.441408
            ],
            [
              79.977583,
              14.441049
            ],
            [
              79.977215,
              14.44058
            ],
            [
              79.976983,
              14.440035
            ],
            [
              79.976904,
              14.43945
            ],
            [
              79.976983,
              14.438865
            ],
            [
              79.977215,
              14.43832
            ],
            [
              79.977583,
              14.437851
            ],
            [
              79.978063,
              14.437492
            ],
            [
              79.978623,
              14.437266
            ],
            [
              79.979223,
              14.437189
            ],
            [
              79.979823,
              14.437266
            ],
            [
              79.980383,
              14.437492
            ],
            [
              79.980863,
              14.437851
            ],
            [
              79.981231,
              14.43832
            ],
            [
              79.981463,
              14.438865
            ],
            [
              79.981542,
              14.43945
            ]
          ]
        ]
      }
    },
    {
      "type": "Feature",
      "properties": {
        "shop_id": "NLR-HLTH-028",
        "shop_name": "Balaji Poultry Stall (Santhapet)",
        "risk_level": "Very High Risk",
        "buffer_radius_m": 250,
        "exposure_zone": "Immediate Bio-Exposure & Odor Vector Zone (250m)"
      },
      "geometry": {
        "type": "Polygon",
        "coordinates": [
          [
            [
              79.984751,
              14.443433
            ],
            [
              79.984672,
              14.444018
            ],
            [
              79.98444,
              14.444563
            ],
            [
              79.984072,
              14.445032
            ],
            [
              79.983592,
              14.445391
            ],
            [
              79.983032,
              14.445617
            ],
            [
              79.982432,
              14.445694
            ],
            [
              79.981832,
              14.445617
            ],
            [
              79.981272,
              14.445391
            ],
            [
              79.980792,
              14.445032
            ],
            [
              79.980424,
              14.444563
            ],
            [
              79.980192,
              14.444018
            ],
            [
              79.980113,
              14.443433
            ],
            [
              79.980192,
              14.442848
            ],
            [
              79.980424,
              14.442303
            ],
            [
              79.980792,
              14.441834
            ],
            [
              79.981272,
              14.441475
            ],
            [
              79.981832,
              14.441249
            ],
            [
              79.982432,
              14.441172
            ],
            [
              79.983032,
              14.441249
            ],
            [
              79.983592,
              14.441475
            ],
            [
              79.984072,
              14.441834
            ],
            [
              79.98444,
              14.442303
            ],
            [
              79.984672,
              14.442848
            ],
            [
              79.984751,
              14.443433
            ]
          ]
        ]
      }
    },
    {
      "type": "Feature",
      "properties": {
        "shop_id": "NLR-HLTH-029",
        "shop_name": "Star Mutton Stall (Santhapet)",
        "risk_level": "High Risk",
        "buffer_radius_m": 250,
        "exposure_zone": "Immediate Bio-Exposure & Odor Vector Zone (250m)"
      },
      "geometry": {
        "type": "Polygon",
        "coordinates": [
          [
            [
              79.980105,
              14.438865
            ],
            [
              79.980026,
              14.43945
            ],
            [
              79.979794,
              14.439995
            ],
            [
              79.979426,
              14.440464
            ],
            [
              79.978946,
              14.440823
            ],
            [
              79.978386,
              14.441049
            ],
            [
              79.977786,
              14.441126
            ],
            [
              79.977186,
              14.441049
            ],
            [
              79.976626,
              14.440823
            ],
            [
              79.976146,
              14.440464
            ],
            [
              79.975778,
              14.439995
            ],
            [
              79.975546,
              14.43945
            ],
            [
              79.975467,
              14.438865
            ],
            [
              79.975546,
              14.43828
            ],
            [
              79.975778,
              14.437735
            ],
            [
              79.976146,
              14.437266
            ],
            [
              79.976626,
              14.436907
            ],
            [
              79.977186,
              14.436681
            ],
            [
              79.977786,
              14.436604
            ],
            [
              79.978386,
              14.436681
            ],
            [
              79.978946,
              14.436907
            ],
            [
              79.979426,
              14.437266
            ],
            [
              79.979794,
              14.437735
            ],
            [
              79.980026,
              14.43828
            ],
            [
              79.980105,
              14.438865
            ]
          ]
        ]
      }
    },
    {
      "type": "Feature",
      "properties": {
        "shop_id": "NLR-HLTH-030",
        "shop_name": "Gouthami Poultry Stall (Santhapet)",
        "risk_level": "Very High Risk",
        "buffer_radius_m": 250,
        "exposure_zone": "Immediate Bio-Exposure & Odor Vector Zone (250m)"
      },
      "geometry": {
        "type": "Polygon",
        "coordinates": [
          [
            [
              79.983437,
              14.439945
            ],
            [
              79.983358,
              14.44053
            ],
            [
              79.983126,
              14.441075
            ],
            [
              79.982758,
              14.441544
            ],
            [
              79.982278,
              14.441903
            ],
            [
              79.981718,
              14.442129
            ],
            [
              79.981118,
              14.442206
            ],
            [
              79.980518,
              14.442129
            ],
            [
              79.979958,
              14.441903
            ],
            [
              79.979478,
              14.441544
            ],
            [
              79.97911,
              14.441075
            ],
            [
              79.978878,
              14.44053
            ],
            [
              79.978799,
              14.439945
            ],
            [
              79.978878,
              14.43936
            ],
            [
              79.97911,
              14.438815
            ],
            [
              79.979478,
              14.438346
            ],
            [
              79.979958,
              14.437987
            ],
            [
              79.980518,
              14.437761
            ],
            [
              79.981118,
              14.437684
            ],
            [
              79.981718,
              14.437761
            ],
            [
              79.982278,
              14.437987
            ],
            [
              79.982758,
              14.438346
            ],
            [
              79.983126,
              14.438815
            ],
            [
              79.983358,
              14.43936
            ],
            [
              79.983437,
              14.439945
            ]
          ]
        ]
      }
    },
    {
      "type": "Feature",
      "properties": {
        "shop_id": "NLR-HLTH-031",
        "shop_name": "Star Poultry Stall (Ranganayakulapet)",
        "risk_level": "High Risk",
        "buffer_radius_m": 250,
        "exposure_zone": "Immediate Bio-Exposure & Odor Vector Zone (250m)"
      },
      "geometry": {
        "type": "Polygon",
        "coordinates": [
          [
            [
              79.984802,
              14.453487
            ],
            [
              79.984723,
              14.454072
            ],
            [
              79.984491,
              14.454617
            ],
            [
              79.984123,
              14.455086
            ],
            [
              79.983643,
              14.455445
            ],
            [
              79.983083,
              14.455671
            ],
            [
              79.982483,
              14.455748
            ],
            [
              79.981883,
              14.455671
            ],
            [
              79.981323,
              14.455445
            ],
            [
              79.980843,
              14.455086
            ],
            [
              79.980475,
              14.454617
            ],
            [
              79.980243,
              14.454072
            ],
            [
              79.980164,
              14.453487
            ],
            [
              79.980243,
              14.452902
            ],
            [
              79.980475,
              14.452357
            ],
            [
              79.980843,
              14.451888
            ],
            [
              79.981323,
              14.451529
            ],
            [
              79.981883,
              14.451303
            ],
            [
              79.982483,
              14.451226
            ],
            [
              79.983083,
              14.451303
            ],
            [
              79.983643,
              14.451529
            ],
            [
              79.984123,
              14.451888
            ],
            [
              79.984491,
              14.452357
            ],
            [
              79.984723,
              14.452902
            ],
            [
              79.984802,
              14.453487
            ]
          ]
        ]
      }
    },
    {
      "type": "Feature",
      "properties": {
        "shop_id": "NLR-HLTH-032",
        "shop_name": "Star Poultry Stall (Ranganayakulapet)",
        "risk_level": "High Risk",
        "buffer_radius_m": 250,
        "exposure_zone": "Immediate Bio-Exposure & Odor Vector Zone (250m)"
      },
      "geometry": {
        "type": "Polygon",
        "coordinates": [
          [
            [
              79.989834,
              14.450096
            ],
            [
              79.989755,
              14.450681
            ],
            [
              79.989523,
              14.451226
            ],
            [
              79.989155,
              14.451695
            ],
            [
              79.988675,
              14.452054
            ],
            [
              79.988115,
              14.45228
            ],
            [
              79.987515,
              14.452357
            ],
            [
              79.986915,
              14.45228
            ],
            [
              79.986355,
              14.452054
            ],
            [
              79.985875,
              14.451695
            ],
            [
              79.985507,
              14.451226
            ],
            [
              79.985275,
              14.450681
            ],
            [
              79.985196,
              14.450096
            ],
            [
              79.985275,
              14.449511
            ],
            [
              79.985507,
              14.448966
            ],
            [
              79.985875,
              14.448497
            ],
            [
              79.986355,
              14.448138
            ],
            [
              79.986915,
              14.447912
            ],
            [
              79.987515,
              14.447835
            ],
            [
              79.988115,
              14.447912
            ],
            [
              79.988675,
              14.448138
            ],
            [
              79.989155,
              14.448497
            ],
            [
              79.989523,
              14.448966
            ],
            [
              79.989755,
              14.449511
            ],
            [
              79.989834,
              14.450096
            ]
          ]
        ]
      }
    },
    {
      "type": "Feature",
      "properties": {
        "shop_id": "NLR-HLTH-033",
        "shop_name": "Balaji Poultry Stall (Ranganayakulapet)",
        "risk_level": "High Risk",
        "buffer_radius_m": 250,
        "exposure_zone": "Immediate Bio-Exposure & Odor Vector Zone (250m)"
      },
      "geometry": {
        "type": "Polygon",
        "coordinates": [
          [
            [
              79.988689,
              14.454383
            ],
            [
              79.98861,
              14.454968
            ],
            [
              79.988378,
              14.455513
            ],
            [
              79.98801,
              14.455982
            ],
            [
              79.98753,
              14.456341
            ],
            [
              79.98697,
              14.456567
            ],
            [
              79.98637,
              14.456644
            ],
            [
              79.98577,
              14.456567
            ],
            [
              79.98521,
              14.456341
            ],
            [
              79.98473,
              14.455982
            ],
            [
              79.984362,
              14.455513
            ],
            [
              79.98413,
              14.454968
            ],
            [
              79.984051,
              14.454383
            ],
            [
              79.98413,
              14.453798
            ],
            [
              79.984362,
              14.453253
            ],
            [
              79.98473,
              14.452784
            ],
            [
              79.98521,
              14.452425
            ],
            [
              79.98577,
              14.452199
            ],
            [
              79.98637,
              14.452122
            ],
            [
              79.98697,
              14.452199
            ],
            [
              79.98753,
              14.452425
            ],
            [
              79.98801,
              14.452784
            ],
            [
              79.988378,
              14.453253
            ],
            [
              79.98861,
              14.453798
            ],
            [
              79.988689,
              14.454383
            ]
          ]
        ]
      }
    },
    {
      "type": "Feature",
      "properties": {
        "shop_id": "NLR-HLTH-034",
        "shop_name": "Al-Madina Fish Stall (Ranganayakulapet)",
        "risk_level": "Very High Risk",
        "buffer_radius_m": 250,
        "exposure_zone": "Immediate Bio-Exposure & Odor Vector Zone (250m)"
      },
      "geometry": {
        "type": "Polygon",
        "coordinates": [
          [
            [
              79.989565,
              14.45649
            ],
            [
              79.989486,
              14.457075
            ],
            [
              79.989254,
              14.45762
            ],
            [
              79.988886,
              14.458089
            ],
            [
              79.988406,
              14.458448
            ],
            [
              79.987846,
              14.458674
            ],
            [
              79.987246,
              14.458751
            ],
            [
              79.986646,
              14.458674
            ],
            [
              79.986086,
              14.458448
            ],
            [
              79.985606,
              14.458089
            ],
            [
              79.985238,
              14.45762
            ],
            [
              79.985006,
              14.457075
            ],
            [
              79.984927,
              14.45649
            ],
            [
              79.985006,
              14.455905
            ],
            [
              79.985238,
              14.45536
            ],
            [
              79.985606,
              14.454891
            ],
            [
              79.986086,
              14.454532
            ],
            [
              79.986646,
              14.454306
            ],
            [
              79.987246,
              14.454229
            ],
            [
              79.987846,
              14.454306
            ],
            [
              79.988406,
              14.454532
            ],
            [
              79.988886,
              14.454891
            ],
            [
              79.989254,
              14.45536
            ],
            [
              79.989486,
              14.455905
            ],
            [
              79.989565,
              14.45649
            ]
          ]
        ]
      }
    },
    {
      "type": "Feature",
      "properties": {
        "shop_id": "NLR-HLTH-035",
        "shop_name": "Sai Krupa Fish Stall (Ranganayakulapet)",
        "risk_level": "High Risk",
        "buffer_radius_m": 250,
        "exposure_zone": "Immediate Bio-Exposure & Odor Vector Zone (250m)"
      },
      "geometry": {
        "type": "Polygon",
        "coordinates": [
          [
            [
              79.988189,
              14.451808
            ],
            [
              79.98811,
              14.452393
            ],
            [
              79.987878,
              14.452938
            ],
            [
              79.98751,
              14.453407
            ],
            [
              79.98703,
              14.453766
            ],
            [
              79.98647,
              14.453992
            ],
            [
              79.98587,
              14.454069
            ],
            [
              79.98527,
              14.453992
            ],
            [
              79.98471,
              14.453766
            ],
            [
              79.98423,
              14.453407
            ],
            [
              79.983862,
              14.452938
            ],
            [
              79.98363,
              14.452393
            ],
            [
              79.983551,
              14.451808
            ],
            [
              79.98363,
              14.451223
            ],
            [
              79.983862,
              14.450678
            ],
            [
              79.98423,
              14.450209
            ],
            [
              79.98471,
              14.44985
            ],
            [
              79.98527,
              14.449624
            ],
            [
              79.98587,
              14.449547
            ],
            [
              79.98647,
              14.449624
            ],
            [
              79.98703,
              14.44985
            ],
            [
              79.98751,
              14.450209
            ],
            [
              79.987878,
              14.450678
            ],
            [
              79.98811,
              14.451223
            ],
            [
              79.988189,
              14.451808
            ]
          ]
        ]
      }
    },
    {
      "type": "Feature",
      "properties": {
        "shop_id": "NLR-HLTH-036",
        "shop_name": "National Fish Stall (Ranganayakulapet)",
        "risk_level": "High Risk",
        "buffer_radius_m": 250,
        "exposure_zone": "Immediate Bio-Exposure & Odor Vector Zone (250m)"
      },
      "geometry": {
        "type": "Polygon",
        "coordinates": [
          [
            [
              79.990583,
              14.450592
            ],
            [
              79.990504,
              14.451177
            ],
            [
              79.990272,
              14.451722
            ],
            [
              79.989904,
              14.452191
            ],
            [
              79.989424,
              14.45255
            ],
            [
              79.988864,
              14.452776
            ],
            [
              79.988264,
              14.452853
            ],
            [
              79.987664,
              14.452776
            ],
            [
              79.987104,
              14.45255
            ],
            [
              79.986624,
              14.452191
            ],
            [
              79.986256,
              14.451722
            ],
            [
              79.986024,
              14.451177
            ],
            [
              79.985945,
              14.450592
            ],
            [
              79.986024,
              14.450007
            ],
            [
              79.986256,
              14.449462
            ],
            [
              79.986624,
              14.448993
            ],
            [
              79.987104,
              14.448634
            ],
            [
              79.987664,
              14.448408
            ],
            [
              79.988264,
              14.448331
            ],
            [
              79.988864,
              14.448408
            ],
            [
              79.989424,
              14.448634
            ],
            [
              79.989904,
              14.448993
            ],
            [
              79.990272,
              14.449462
            ],
            [
              79.990504,
              14.450007
            ],
            [
              79.990583,
              14.450592
            ]
          ]
        ]
      }
    },
    {
      "type": "Feature",
      "properties": {
        "shop_id": "NLR-HLTH-037",
        "shop_name": "Gouthami Fish Stall (Ranganayakulapet)",
        "risk_level": "Very High Risk",
        "buffer_radius_m": 250,
        "exposure_zone": "Immediate Bio-Exposure & Odor Vector Zone (250m)"
      },
      "geometry": {
        "type": "Polygon",
        "coordinates": [
          [
            [
              79.99092,
              14.453234
            ],
            [
              79.990841,
              14.453819
            ],
            [
              79.990609,
              14.454364
            ],
            [
              79.990241,
              14.454833
            ],
            [
              79.989761,
              14.455192
            ],
            [
              79.989201,
              14.455418
            ],
            [
              79.988601,
              14.455495
            ],
            [
              79.988001,
              14.455418
            ],
            [
              79.987441,
              14.455192
            ],
            [
              79.986961,
              14.454833
            ],
            [
              79.986593,
              14.454364
            ],
            [
              79.986361,
              14.453819
            ],
            [
              79.986282,
              14.453234
            ],
            [
              79.986361,
              14.452649
            ],
            [
              79.986593,
              14.452104
            ],
            [
              79.986961,
              14.451635
            ],
            [
              79.987441,
              14.451276
            ],
            [
              79.988001,
              14.45105
            ],
            [
              79.988601,
              14.450973
            ],
            [
              79.989201,
              14.45105
            ],
            [
              79.989761,
              14.451276
            ],
            [
              79.990241,
              14.451635
            ],
            [
              79.990609,
              14.452104
            ],
            [
              79.990841,
              14.452649
            ],
            [
              79.99092,
              14.453234
            ]
          ]
        ]
      }
    },
    {
      "type": "Feature",
      "properties": {
        "shop_id": "NLR-HLTH-038",
        "shop_name": "Annapurna Fish Stall (Ranganayakulapet)",
        "risk_level": "High Risk",
        "buffer_radius_m": 250,
        "exposure_zone": "Immediate Bio-Exposure & Odor Vector Zone (250m)"
      },
      "geometry": {
        "type": "Polygon",
        "coordinates": [
          [
            [
              79.988432,
              14.456561
            ],
            [
              79.988353,
              14.457146
            ],
            [
              79.988121,
              14.457691
            ],
            [
              79.987753,
              14.45816
            ],
            [
              79.987273,
              14.458519
            ],
            [
              79.986713,
              14.458745
            ],
            [
              79.986113,
              14.458822
            ],
            [
              79.985513,
              14.458745
            ],
            [
              79.984953,
              14.458519
            ],
            [
              79.984473,
              14.45816
            ],
            [
              79.984105,
              14.457691
            ],
            [
              79.983873,
              14.457146
            ],
            [
              79.983794,
              14.456561
            ],
            [
              79.983873,
              14.455976
            ],
            [
              79.984105,
              14.455431
            ],
            [
              79.984473,
              14.454962
            ],
            [
              79.984953,
              14.454603
            ],
            [
              79.985513,
              14.454377
            ],
            [
              79.986113,
              14.4543
            ],
            [
              79.986713,
              14.454377
            ],
            [
              79.987273,
              14.454603
            ],
            [
              79.987753,
              14.454962
            ],
            [
              79.988121,
              14.455431
            ],
            [
              79.988353,
              14.455976
            ],
            [
              79.988432,
              14.456561
            ]
          ]
        ]
      }
    },
    {
      "type": "Feature",
      "properties": {
        "shop_id": "NLR-HLTH-039",
        "shop_name": "Star Fish Stall (Ranganayakulapet)",
        "risk_level": "Very High Risk",
        "buffer_radius_m": 250,
        "exposure_zone": "Immediate Bio-Exposure & Odor Vector Zone (250m)"
      },
      "geometry": {
        "type": "Polygon",
        "coordinates": [
          [
            [
              79.989517,
              14.450964
            ],
            [
              79.989438,
              14.451549
            ],
            [
              79.989206,
              14.452094
            ],
            [
              79.988838,
              14.452563
            ],
            [
              79.988358,
              14.452922
            ],
            [
              79.987798,
              14.453148
            ],
            [
              79.987198,
              14.453225
            ],
            [
              79.986598,
              14.453148
            ],
            [
              79.986038,
              14.452922
            ],
            [
              79.985558,
              14.452563
            ],
            [
              79.98519,
              14.452094
            ],
            [
              79.984958,
              14.451549
            ],
            [
              79.984879,
              14.450964
            ],
            [
              79.984958,
              14.450379
            ],
            [
              79.98519,
              14.449834
            ],
            [
              79.985558,
              14.449365
            ],
            [
              79.986038,
              14.449006
            ],
            [
              79.986598,
              14.44878
            ],
            [
              79.987198,
              14.448703
            ],
            [
              79.987798,
              14.44878
            ],
            [
              79.988358,
              14.449006
            ],
            [
              79.988838,
              14.449365
            ],
            [
              79.989206,
              14.449834
            ],
            [
              79.989438,
              14.450379
            ],
            [
              79.989517,
              14.450964
            ]
          ]
        ]
      }
    },
    {
      "type": "Feature",
      "properties": {
        "shop_id": "NLR-HLTH-040",
        "shop_name": "Star Poultry Stall (Ranganayakulapet)",
        "risk_level": "High Risk",
        "buffer_radius_m": 250,
        "exposure_zone": "Immediate Bio-Exposure & Odor Vector Zone (250m)"
      },
      "geometry": {
        "type": "Polygon",
        "coordinates": [
          [
            [
              79.991861,
              14.453251
            ],
            [
              79.991782,
              14.453836
            ],
            [
              79.99155,
              14.454381
            ],
            [
              79.991182,
              14.45485
            ],
            [
              79.990702,
              14.455209
            ],
            [
              79.990142,
              14.455435
            ],
            [
              79.989542,
              14.455512
            ],
            [
              79.988942,
              14.455435
            ],
            [
              79.988382,
              14.455209
            ],
            [
              79.987902,
              14.45485
            ],
            [
              79.987534,
              14.454381
            ],
            [
              79.987302,
              14.453836
            ],
            [
              79.987223,
              14.453251
            ],
            [
              79.987302,
              14.452666
            ],
            [
              79.987534,
              14.452121
            ],
            [
              79.987902,
              14.451652
            ],
            [
              79.988382,
              14.451293
            ],
            [
              79.988942,
              14.451067
            ],
            [
              79.989542,
              14.45099
            ],
            [
              79.990142,
              14.451067
            ],
            [
              79.990702,
              14.451293
            ],
            [
              79.991182,
              14.451652
            ],
            [
              79.99155,
              14.452121
            ],
            [
              79.991782,
              14.452666
            ],
            [
              79.991861,
              14.453251
            ]
          ]
        ]
      }
    },
    {
      "type": "Feature",
      "properties": {
        "shop_id": "NLR-HLTH-041",
        "shop_name": "Balaji Poultry Stall (Vedayapalem)",
        "risk_level": "High Risk",
        "buffer_radius_m": 250,
        "exposure_zone": "Immediate Bio-Exposure & Odor Vector Zone (250m)"
      },
      "geometry": {
        "type": "Polygon",
        "coordinates": [
          [
            [
              79.967302,
              14.41985
            ],
            [
              79.967223,
              14.420435
            ],
            [
              79.966991,
              14.42098
            ],
            [
              79.966623,
              14.421449
            ],
            [
              79.966143,
              14.421808
            ],
            [
              79.965583,
              14.422034
            ],
            [
              79.964983,
              14.422111
            ],
            [
              79.964383,
              14.422034
            ],
            [
              79.963823,
              14.421808
            ],
            [
              79.963343,
              14.421449
            ],
            [
              79.962975,
              14.42098
            ],
            [
              79.962743,
              14.420435
            ],
            [
              79.962664,
              14.41985
            ],
            [
              79.962743,
              14.419265
            ],
            [
              79.962975,
              14.41872
            ],
            [
              79.963343,
              14.418251
            ],
            [
              79.963823,
              14.417892
            ],
            [
              79.964383,
              14.417666
            ],
            [
              79.964983,
              14.417589
            ],
            [
              79.965583,
              14.417666
            ],
            [
              79.966143,
              14.417892
            ],
            [
              79.966623,
              14.418251
            ],
            [
              79.966991,
              14.41872
            ],
            [
              79.967223,
              14.419265
            ],
            [
              79.967302,
              14.41985
            ]
          ]
        ]
      }
    },
    {
      "type": "Feature",
      "properties": {
        "shop_id": "NLR-HLTH-042",
        "shop_name": "Coastal Choice Mutton Stall (Vedayapalem)",
        "risk_level": "High Risk",
        "buffer_radius_m": 250,
        "exposure_zone": "Immediate Bio-Exposure & Odor Vector Zone (250m)"
      },
      "geometry": {
        "type": "Polygon",
        "coordinates": [
          [
            [
              79.965373,
              14.414967
            ],
            [
              79.965294,
              14.415552
            ],
            [
              79.965062,
              14.416097
            ],
            [
              79.964694,
              14.416566
            ],
            [
              79.964214,
              14.416925
            ],
            [
              79.963654,
              14.417151
            ],
            [
              79.963054,
              14.417228
            ],
            [
              79.962454,
              14.417151
            ],
            [
              79.961894,
              14.416925
            ],
            [
              79.961414,
              14.416566
            ],
            [
              79.961046,
              14.416097
            ],
            [
              79.960814,
              14.415552
            ],
            [
              79.960735,
              14.414967
            ],
            [
              79.960814,
              14.414382
            ],
            [
              79.961046,
              14.413837
            ],
            [
              79.961414,
              14.413368
            ],
            [
              79.961894,
              14.413009
            ],
            [
              79.962454,
              14.412783
            ],
            [
              79.963054,
              14.412706
            ],
            [
              79.963654,
              14.412783
            ],
            [
              79.964214,
              14.413009
            ],
            [
              79.964694,
              14.413368
            ],
            [
              79.965062,
              14.413837
            ],
            [
              79.965294,
              14.414382
            ],
            [
              79.965373,
              14.414967
            ]
          ]
        ]
      }
    },
    {
      "type": "Feature",
      "properties": {
        "shop_id": "NLR-HLTH-047",
        "shop_name": "Pennar Quality Poultry Stall (Vedayapalem)",
        "risk_level": "High Risk",
        "buffer_radius_m": 250,
        "exposure_zone": "Immediate Bio-Exposure & Odor Vector Zone (250m)"
      },
      "geometry": {
        "type": "Polygon",
        "coordinates": [
          [
            [
              79.965659,
              14.416943
            ],
            [
              79.96558,
              14.417528
            ],
            [
              79.965348,
              14.418073
            ],
            [
              79.96498,
              14.418542
            ],
            [
              79.9645,
              14.418901
            ],
            [
              79.96394,
              14.419127
            ],
            [
              79.96334,
              14.419204
            ],
            [
              79.96274,
              14.419127
            ],
            [
              79.96218,
              14.418901
            ],
            [
              79.9617,
              14.418542
            ],
            [
              79.961332,
              14.418073
            ],
            [
              79.9611,
              14.417528
            ],
            [
              79.961021,
              14.416943
            ],
            [
              79.9611,
              14.416358
            ],
            [
              79.961332,
              14.415813
            ],
            [
              79.9617,
              14.415344
            ],
            [
              79.96218,
              14.414985
            ],
            [
              79.96274,
              14.414759
            ],
            [
              79.96334,
              14.414682
            ],
            [
              79.96394,
              14.414759
            ],
            [
              79.9645,
              14.414985
            ],
            [
              79.96498,
              14.415344
            ],
            [
              79.965348,
              14.415813
            ],
            [
              79.96558,
              14.416358
            ],
            [
              79.965659,
              14.416943
            ]
          ]
        ]
      }
    },
    {
      "type": "Feature",
      "properties": {
        "shop_id": "NLR-HLTH-049",
        "shop_name": "Gouthami Poultry Stall (Vedayapalem)",
        "risk_level": "Very High Risk",
        "buffer_radius_m": 250,
        "exposure_zone": "Immediate Bio-Exposure & Odor Vector Zone (250m)"
      },
      "geometry": {
        "type": "Polygon",
        "coordinates": [
          [
            [
              79.967684,
              14.418532
            ],
            [
              79.967605,
              14.419117
            ],
            [
              79.967373,
              14.419662
            ],
            [
              79.967005,
              14.420131
            ],
            [
              79.966525,
              14.42049
            ],
            [
              79.965965,
              14.420716
            ],
            [
              79.965365,
              14.420793
            ],
            [
              79.964765,
              14.420716
            ],
            [
              79.964205,
              14.42049
            ],
            [
              79.963725,
              14.420131
            ],
            [
              79.963357,
              14.419662
            ],
            [
              79.963125,
              14.419117
            ],
            [
              79.963046,
              14.418532
            ],
            [
              79.963125,
              14.417947
            ],
            [
              79.963357,
              14.417402
            ],
            [
              79.963725,
              14.416933
            ],
            [
              79.964205,
              14.416574
            ],
            [
              79.964765,
              14.416348
            ],
            [
              79.965365,
              14.416271
            ],
            [
              79.965965,
              14.416348
            ],
            [
              79.966525,
              14.416574
            ],
            [
              79.967005,
              14.416933
            ],
            [
              79.967373,
              14.417402
            ],
            [
              79.967605,
              14.417947
            ],
            [
              79.967684,
              14.418532
            ]
          ]
        ]
      }
    },
    {
      "type": "Feature",
      "properties": {
        "shop_id": "NLR-HLTH-050",
        "shop_name": "National Poultry Stall (Vedayapalem)",
        "risk_level": "High Risk",
        "buffer_radius_m": 250,
        "exposure_zone": "Immediate Bio-Exposure & Odor Vector Zone (250m)"
      },
      "geometry": {
        "type": "Polygon",
        "coordinates": [
          [
            [
              79.970477,
              14.420941
            ],
            [
              79.970398,
              14.421526
            ],
            [
              79.970166,
              14.422071
            ],
            [
              79.969798,
              14.42254
            ],
            [
              79.969318,
              14.422899
            ],
            [
              79.968758,
              14.423125
            ],
            [
              79.968158,
              14.423202
            ],
            [
              79.967558,
              14.423125
            ],
            [
              79.966998,
              14.422899
            ],
            [
              79.966518,
              14.42254
            ],
            [
              79.96615,
              14.422071
            ],
            [
              79.965918,
              14.421526
            ],
            [
              79.965839,
              14.420941
            ],
            [
              79.965918,
              14.420356
            ],
            [
              79.96615,
              14.419811
            ],
            [
              79.966518,
              14.419342
            ],
            [
              79.966998,
              14.418983
            ],
            [
              79.967558,
              14.418757
            ],
            [
              79.968158,
              14.41868
            ],
            [
              79.968758,
              14.418757
            ],
            [
              79.969318,
              14.418983
            ],
            [
              79.969798,
              14.419342
            ],
            [
              79.970166,
              14.419811
            ],
            [
              79.970398,
              14.420356
            ],
            [
              79.970477,
              14.420941
            ]
          ]
        ]
      }
    },
    {
      "type": "Feature",
      "properties": {
        "shop_id": "NLR-HLTH-051",
        "shop_name": "Nellore Fresh Mutton Stall (Kovur)",
        "risk_level": "High Risk",
        "buffer_radius_m": 250,
        "exposure_zone": "Immediate Bio-Exposure & Odor Vector Zone (250m)"
      },
      "geometry": {
        "type": "Polygon",
        "coordinates": [
          [
            [
              79.977078,
              14.493883
            ],
            [
              79.976999,
              14.494468
            ],
            [
              79.976767,
              14.495013
            ],
            [
              79.976399,
              14.495482
            ],
            [
              79.975919,
              14.495841
            ],
            [
              79.975359,
              14.496067
            ],
            [
              79.974759,
              14.496144
            ],
            [
              79.974159,
              14.496067
            ],
            [
              79.973599,
              14.495841
            ],
            [
              79.973119,
              14.495482
            ],
            [
              79.972751,
              14.495013
            ],
            [
              79.972519,
              14.494468
            ],
            [
              79.97244,
              14.493883
            ],
            [
              79.972519,
              14.493298
            ],
            [
              79.972751,
              14.492753
            ],
            [
              79.973119,
              14.492284
            ],
            [
              79.973599,
              14.491925
            ],
            [
              79.974159,
              14.491699
            ],
            [
              79.974759,
              14.491622
            ],
            [
              79.975359,
              14.491699
            ],
            [
              79.975919,
              14.491925
            ],
            [
              79.976399,
              14.492284
            ],
            [
              79.976767,
              14.492753
            ],
            [
              79.976999,
              14.493298
            ],
            [
              79.977078,
              14.493883
            ]
          ]
        ]
      }
    },
    {
      "type": "Feature",
      "properties": {
        "shop_id": "NLR-HLTH-056",
        "shop_name": "Coastal Choice Poultry Stall (Kovur)",
        "risk_level": "High Risk",
        "buffer_radius_m": 250,
        "exposure_zone": "Immediate Bio-Exposure & Odor Vector Zone (250m)"
      },
      "geometry": {
        "type": "Polygon",
        "coordinates": [
          [
            [
              79.980285,
              14.495956
            ],
            [
              79.980206,
              14.496541
            ],
            [
              79.979974,
              14.497086
            ],
            [
              79.979606,
              14.497555
            ],
            [
              79.979126,
              14.497914
            ],
            [
              79.978566,
              14.49814
            ],
            [
              79.977966,
              14.498217
            ],
            [
              79.977366,
              14.49814
            ],
            [
              79.976806,
              14.497914
            ],
            [
              79.976326,
              14.497555
            ],
            [
              79.975958,
              14.497086
            ],
            [
              79.975726,
              14.496541
            ],
            [
              79.975647,
              14.495956
            ],
            [
              79.975726,
              14.495371
            ],
            [
              79.975958,
              14.494826
            ],
            [
              79.976326,
              14.494357
            ],
            [
              79.976806,
              14.493998
            ],
            [
              79.977366,
              14.493772
            ],
            [
              79.977966,
              14.493695
            ],
            [
              79.978566,
              14.493772
            ],
            [
              79.979126,
              14.493998
            ],
            [
              79.979606,
              14.494357
            ],
            [
              79.979974,
              14.494826
            ],
            [
              79.980206,
              14.495371
            ],
            [
              79.980285,
              14.495956
            ]
          ]
        ]
      }
    },
    {
      "type": "Feature",
      "properties": {
        "shop_id": "NLR-HLTH-057",
        "shop_name": "National Poultry Stall (Kovur)",
        "risk_level": "High Risk",
        "buffer_radius_m": 250,
        "exposure_zone": "Immediate Bio-Exposure & Odor Vector Zone (250m)"
      },
      "geometry": {
        "type": "Polygon",
        "coordinates": [
          [
            [
              79.97879,
              14.493228
            ],
            [
              79.978711,
              14.493813
            ],
            [
              79.978479,
              14.494358
            ],
            [
              79.978111,
              14.494827
            ],
            [
              79.977631,
              14.495186
            ],
            [
              79.977071,
              14.495412
            ],
            [
              79.976471,
              14.495489
            ],
            [
              79.975871,
              14.495412
            ],
            [
              79.975311,
              14.495186
            ],
            [
              79.974831,
              14.494827
            ],
            [
              79.974463,
              14.494358
            ],
            [
              79.974231,
              14.493813
            ],
            [
              79.974152,
              14.493228
            ],
            [
              79.974231,
              14.492643
            ],
            [
              79.974463,
              14.492098
            ],
            [
              79.974831,
              14.491629
            ],
            [
              79.975311,
              14.49127
            ],
            [
              79.975871,
              14.491044
            ],
            [
              79.976471,
              14.490967
            ],
            [
              79.977071,
              14.491044
            ],
            [
              79.977631,
              14.49127
            ],
            [
              79.978111,
              14.491629
            ],
            [
              79.978479,
              14.492098
            ],
            [
              79.978711,
              14.492643
            ],
            [
              79.97879,
              14.493228
            ]
          ]
        ]
      }
    },
    {
      "type": "Feature",
      "properties": {
        "shop_id": "NLR-HLTH-058",
        "shop_name": "Star Mixed Stall (Kovur)",
        "risk_level": "Very High Risk",
        "buffer_radius_m": 250,
        "exposure_zone": "Immediate Bio-Exposure & Odor Vector Zone (250m)"
      },
      "geometry": {
        "type": "Polygon",
        "coordinates": [
          [
            [
              79.978872,
              14.493955
            ],
            [
              79.978793,
              14.49454
            ],
            [
              79.978561,
              14.495085
            ],
            [
              79.978193,
              14.495554
            ],
            [
              79.977713,
              14.495913
            ],
            [
              79.977153,
              14.496139
            ],
            [
              79.976553,
              14.496216
            ],
            [
              79.975953,
              14.496139
            ],
            [
              79.975393,
              14.495913
            ],
            [
              79.974913,
              14.495554
            ],
            [
              79.974545,
              14.495085
            ],
            [
              79.974313,
              14.49454
            ],
            [
              79.974234,
              14.493955
            ],
            [
              79.974313,
              14.49337
            ],
            [
              79.974545,
              14.492825
            ],
            [
              79.974913,
              14.492356
            ],
            [
              79.975393,
              14.491997
            ],
            [
              79.975953,
              14.491771
            ],
            [
              79.976553,
              14.491694
            ],
            [
              79.977153,
              14.491771
            ],
            [
              79.977713,
              14.491997
            ],
            [
              79.978193,
              14.492356
            ],
            [
              79.978561,
              14.492825
            ],
            [
              79.978793,
              14.49337
            ],
            [
              79.978872,
              14.493955
            ]
          ]
        ]
      }
    },
    {
      "type": "Feature",
      "properties": {
        "shop_id": "NLR-HLTH-059",
        "shop_name": "Sri Venkateswara Mixed Stall (Kovur)",
        "risk_level": "Very High Risk",
        "buffer_radius_m": 250,
        "exposure_zone": "Immediate Bio-Exposure & Odor Vector Zone (250m)"
      },
      "geometry": {
        "type": "Polygon",
        "coordinates": [
          [
            [
              79.979485,
              14.494069
            ],
            [
              79.979406,
              14.494654
            ],
            [
              79.979174,
              14.495199
            ],
            [
              79.978806,
              14.495668
            ],
            [
              79.978326,
              14.496027
            ],
            [
              79.977766,
              14.496253
            ],
            [
              79.977166,
              14.49633
            ],
            [
              79.976566,
              14.496253
            ],
            [
              79.976006,
              14.496027
            ],
            [
              79.975526,
              14.495668
            ],
            [
              79.975158,
              14.495199
            ],
            [
              79.974926,
              14.494654
            ],
            [
              79.974847,
              14.494069
            ],
            [
              79.974926,
              14.493484
            ],
            [
              79.975158,
              14.492939
            ],
            [
              79.975526,
              14.49247
            ],
            [
              79.976006,
              14.492111
            ],
            [
              79.976566,
              14.491885
            ],
            [
              79.977166,
              14.491808
            ],
            [
              79.977766,
              14.491885
            ],
            [
              79.978326,
              14.492111
            ],
            [
              79.978806,
              14.49247
            ],
            [
              79.979174,
              14.492939
            ],
            [
              79.979406,
              14.493484
            ],
            [
              79.979485,
              14.494069
            ]
          ]
        ]
      }
    },
    {
      "type": "Feature",
      "properties": {
        "shop_id": "NLR-HLTH-060",
        "shop_name": "Sri Venkateswara Poultry Stall (Kovur)",
        "risk_level": "High Risk",
        "buffer_radius_m": 250,
        "exposure_zone": "Immediate Bio-Exposure & Odor Vector Zone (250m)"
      },
      "geometry": {
        "type": "Polygon",
        "coordinates": [
          [
            [
              79.980521,
              14.495621
            ],
            [
              79.980442,
              14.496206
            ],
            [
              79.98021,
              14.496751
            ],
            [
              79.979842,
              14.49722
            ],
            [
              79.979362,
              14.497579
            ],
            [
              79.978802,
              14.497805
            ],
            [
              79.978202,
              14.497882
            ],
            [
              79.977602,
              14.497805
            ],
            [
              79.977042,
              14.497579
            ],
            [
              79.976562,
              14.49722
            ],
            [
              79.976194,
              14.496751
            ],
            [
              79.975962,
              14.496206
            ],
            [
              79.975883,
              14.495621
            ],
            [
              79.975962,
              14.495036
            ],
            [
              79.976194,
              14.494491
            ],
            [
              79.976562,
              14.494022
            ],
            [
              79.977042,
              14.493663
            ],
            [
              79.977602,
              14.493437
            ],
            [
              79.978202,
              14.49336
            ],
            [
              79.978802,
              14.493437
            ],
            [
              79.979362,
              14.493663
            ],
            [
              79.979842,
              14.494022
            ],
            [
              79.98021,
              14.494491
            ],
            [
              79.980442,
              14.495036
            ],
            [
              79.980521,
              14.495621
            ]
          ]
        ]
      }
    },
    {
      "type": "Feature",
      "properties": {
        "shop_id": "NLR-HLTH-062",
        "shop_name": "Star Fish Stall (Kovur)",
        "risk_level": "High Risk",
        "buffer_radius_m": 250,
        "exposure_zone": "Immediate Bio-Exposure & Odor Vector Zone (250m)"
      },
      "geometry": {
        "type": "Polygon",
        "coordinates": [
          [
            [
              79.981999,
              14.494622
            ],
            [
              79.98192,
              14.495207
            ],
            [
              79.981688,
              14.495752
            ],
            [
              79.98132,
              14.496221
            ],
            [
              79.98084,
              14.49658
            ],
            [
              79.98028,
              14.496806
            ],
            [
              79.97968,
              14.496883
            ],
            [
              79.97908,
              14.496806
            ],
            [
              79.97852,
              14.49658
            ],
            [
              79.97804,
              14.496221
            ],
            [
              79.977672,
              14.495752
            ],
            [
              79.97744,
              14.495207
            ],
            [
              79.977361,
              14.494622
            ],
            [
              79.97744,
              14.494037
            ],
            [
              79.977672,
              14.493492
            ],
            [
              79.97804,
              14.493023
            ],
            [
              79.97852,
              14.492664
            ],
            [
              79.97908,
              14.492438
            ],
            [
              79.97968,
              14.492361
            ],
            [
              79.98028,
              14.492438
            ],
            [
              79.98084,
              14.492664
            ],
            [
              79.98132,
              14.493023
            ],
            [
              79.981688,
              14.493492
            ],
            [
              79.98192,
              14.494037
            ],
            [
              79.981999,
              14.494622
            ]
          ]
        ]
      }
    },
    {
      "type": "Feature",
      "properties": {
        "shop_id": "NLR-HLTH-064",
        "shop_name": "Sri Venkateswara Mutton Stall (Kovur)",
        "risk_level": "High Risk",
        "buffer_radius_m": 250,
        "exposure_zone": "Immediate Bio-Exposure & Odor Vector Zone (250m)"
      },
      "geometry": {
        "type": "Polygon",
        "coordinates": [
          [
            [
              79.980736,
              14.494103
            ],
            [
              79.980657,
              14.494688
            ],
            [
              79.980425,
              14.495233
            ],
            [
              79.980057,
              14.495702
            ],
            [
              79.979577,
              14.496061
            ],
            [
              79.979017,
              14.496287
            ],
            [
              79.978417,
              14.496364
            ],
            [
              79.977817,
              14.496287
            ],
            [
              79.977257,
              14.496061
            ],
            [
              79.976777,
              14.495702
            ],
            [
              79.976409,
              14.495233
            ],
            [
              79.976177,
              14.494688
            ],
            [
              79.976098,
              14.494103
            ],
            [
              79.976177,
              14.493518
            ],
            [
              79.976409,
              14.492973
            ],
            [
              79.976777,
              14.492504
            ],
            [
              79.977257,
              14.492145
            ],
            [
              79.977817,
              14.491919
            ],
            [
              79.978417,
              14.491842
            ],
            [
              79.979017,
              14.491919
            ],
            [
              79.979577,
              14.492145
            ],
            [
              79.980057,
              14.492504
            ],
            [
              79.980425,
              14.492973
            ],
            [
              79.980657,
              14.493518
            ],
            [
              79.980736,
              14.494103
            ]
          ]
        ]
      }
    },
    {
      "type": "Feature",
      "properties": {
        "shop_id": "NLR-HLTH-068",
        "shop_name": "Annapurna Fish Stall (Padugupadu)",
        "risk_level": "High Risk",
        "buffer_radius_m": 250,
        "exposure_zone": "Immediate Bio-Exposure & Odor Vector Zone (250m)"
      },
      "geometry": {
        "type": "Polygon",
        "coordinates": [
          [
            [
              79.986754,
              14.476728
            ],
            [
              79.986675,
              14.477313
            ],
            [
              79.986443,
              14.477858
            ],
            [
              79.986075,
              14.478327
            ],
            [
              79.985595,
              14.478686
            ],
            [
              79.985035,
              14.478912
            ],
            [
              79.984435,
              14.478989
            ],
            [
              79.983835,
              14.478912
            ],
            [
              79.983275,
              14.478686
            ],
            [
              79.982795,
              14.478327
            ],
            [
              79.982427,
              14.477858
            ],
            [
              79.982195,
              14.477313
            ],
            [
              79.982116,
              14.476728
            ],
            [
              79.982195,
              14.476143
            ],
            [
              79.982427,
              14.475598
            ],
            [
              79.982795,
              14.475129
            ],
            [
              79.983275,
              14.47477
            ],
            [
              79.983835,
              14.474544
            ],
            [
              79.984435,
              14.474467
            ],
            [
              79.985035,
              14.474544
            ],
            [
              79.985595,
              14.47477
            ],
            [
              79.986075,
              14.475129
            ],
            [
              79.986443,
              14.475598
            ],
            [
              79.986675,
              14.476143
            ],
            [
              79.986754,
              14.476728
            ]
          ]
        ]
      }
    },
    {
      "type": "Feature",
      "properties": {
        "shop_id": "NLR-HLTH-071",
        "shop_name": "Annapurna Poultry Stall (Padugupadu)",
        "risk_level": "High Risk",
        "buffer_radius_m": 250,
        "exposure_zone": "Immediate Bio-Exposure & Odor Vector Zone (250m)"
      },
      "geometry": {
        "type": "Polygon",
        "coordinates": [
          [
            [
              79.984018,
              14.474266
            ],
            [
              79.983939,
              14.474851
            ],
            [
              79.983707,
              14.475396
            ],
            [
              79.983339,
              14.475865
            ],
            [
              79.982859,
              14.476224
            ],
            [
              79.982299,
              14.47645
            ],
            [
              79.981699,
              14.476527
            ],
            [
              79.981099,
              14.47645
            ],
            [
              79.980539,
              14.476224
            ],
            [
              79.980059,
              14.475865
            ],
            [
              79.979691,
              14.475396
            ],
            [
              79.979459,
              14.474851
            ],
            [
              79.97938,
              14.474266
            ],
            [
              79.979459,
              14.473681
            ],
            [
              79.979691,
              14.473136
            ],
            [
              79.980059,
              14.472667
            ],
            [
              79.980539,
              14.472308
            ],
            [
              79.981099,
              14.472082
            ],
            [
              79.981699,
              14.472005
            ],
            [
              79.982299,
              14.472082
            ],
            [
              79.982859,
              14.472308
            ],
            [
              79.983339,
              14.472667
            ],
            [
              79.983707,
              14.473136
            ],
            [
              79.983939,
              14.473681
            ],
            [
              79.984018,
              14.474266
            ]
          ]
        ]
      }
    },
    {
      "type": "Feature",
      "properties": {
        "shop_id": "NLR-HLTH-074",
        "shop_name": "Sri Venkateswara Mutton Stall (Inamadugu)",
        "risk_level": "High Risk",
        "buffer_radius_m": 250,
        "exposure_zone": "Immediate Bio-Exposure & Odor Vector Zone (250m)"
      },
      "geometry": {
        "type": "Polygon",
        "coordinates": [
          [
            [
              80.003766,
              14.491223
            ],
            [
              80.003687,
              14.491808
            ],
            [
              80.003455,
              14.492353
            ],
            [
              80.003087,
              14.492822
            ],
            [
              80.002607,
              14.493181
            ],
            [
              80.002047,
              14.493407
            ],
            [
              80.001447,
              14.493484
            ],
            [
              80.000847,
              14.493407
            ],
            [
              80.000287,
              14.493181
            ],
            [
              79.999807,
              14.492822
            ],
            [
              79.999439,
              14.492353
            ],
            [
              79.999207,
              14.491808
            ],
            [
              79.999128,
              14.491223
            ],
            [
              79.999207,
              14.490638
            ],
            [
              79.999439,
              14.490093
            ],
            [
              79.999807,
              14.489624
            ],
            [
              80.000287,
              14.489265
            ],
            [
              80.000847,
              14.489039
            ],
            [
              80.001447,
              14.488962
            ],
            [
              80.002047,
              14.489039
            ],
            [
              80.002607,
              14.489265
            ],
            [
              80.003087,
              14.489624
            ],
            [
              80.003455,
              14.490093
            ],
            [
              80.003687,
              14.490638
            ],
            [
              80.003766,
              14.491223
            ]
          ]
        ]
      }
    },
    {
      "type": "Feature",
      "properties": {
        "shop_id": "NLR-HLTH-078",
        "shop_name": "Sai Krupa Mutton Stall (Inamadugu)",
        "risk_level": "High Risk",
        "buffer_radius_m": 250,
        "exposure_zone": "Immediate Bio-Exposure & Odor Vector Zone (250m)"
      },
      "geometry": {
        "type": "Polygon",
        "coordinates": [
          [
            [
              80.00543,
              14.493318
            ],
            [
              80.005351,
              14.493903
            ],
            [
              80.005119,
              14.494448
            ],
            [
              80.004751,
              14.494917
            ],
            [
              80.004271,
              14.495276
            ],
            [
              80.003711,
              14.495502
            ],
            [
              80.003111,
              14.495579
            ],
            [
              80.002511,
              14.495502
            ],
            [
              80.001951,
              14.495276
            ],
            [
              80.001471,
              14.494917
            ],
            [
              80.001103,
              14.494448
            ],
            [
              80.000871,
              14.493903
            ],
            [
              80.000792,
              14.493318
            ],
            [
              80.000871,
              14.492733
            ],
            [
              80.001103,
              14.492188
            ],
            [
              80.001471,
              14.491719
            ],
            [
              80.001951,
              14.49136
            ],
            [
              80.002511,
              14.491134
            ],
            [
              80.003111,
              14.491057
            ],
            [
              80.003711,
              14.491134
            ],
            [
              80.004271,
              14.49136
            ],
            [
              80.004751,
              14.491719
            ],
            [
              80.005119,
              14.492188
            ],
            [
              80.005351,
              14.492733
            ],
            [
              80.00543,
              14.493318
            ]
          ]
        ]
      }
    },
    {
      "type": "Feature",
      "properties": {
        "shop_id": "NLR-HLTH-079",
        "shop_name": "Al-Madina Poultry Stall (Inamadugu)",
        "risk_level": "High Risk",
        "buffer_radius_m": 250,
        "exposure_zone": "Immediate Bio-Exposure & Odor Vector Zone (250m)"
      },
      "geometry": {
        "type": "Polygon",
        "coordinates": [
          [
            [
              80.004156,
              14.492116
            ],
            [
              80.004077,
              14.492701
            ],
            [
              80.003845,
              14.493246
            ],
            [
              80.003477,
              14.493715
            ],
            [
              80.002997,
              14.494074
            ],
            [
              80.002437,
              14.4943
            ],
            [
              80.001837,
              14.494377
            ],
            [
              80.001237,
              14.4943
            ],
            [
              80.000677,
              14.494074
            ],
            [
              80.000197,
              14.493715
            ],
            [
              79.999829,
              14.493246
            ],
            [
              79.999597,
              14.492701
            ],
            [
              79.999518,
              14.492116
            ],
            [
              79.999597,
              14.491531
            ],
            [
              79.999829,
              14.490986
            ],
            [
              80.000197,
              14.490517
            ],
            [
              80.000677,
              14.490158
            ],
            [
              80.001237,
              14.489932
            ],
            [
              80.001837,
              14.489855
            ],
            [
              80.002437,
              14.489932
            ],
            [
              80.002997,
              14.490158
            ],
            [
              80.003477,
              14.490517
            ],
            [
              80.003845,
              14.490986
            ],
            [
              80.004077,
              14.491531
            ],
            [
              80.004156,
              14.492116
            ]
          ]
        ]
      }
    }
  ]
}