{
  "type": "FeatureCollection",
  "features": [
    {
      "type": "Feature",
      "properties": {
        "shop_id": "NLR-HLTH-007",
        "shop_name": "Coastal Choice Fish Stall (Stonehousepet)",
        "risk_level": "High Risk",
        "buffer_radius_m": 500,
        "exposure_zone": "Secondary Vector & Human Transmission Reach (500m)"
      },
      "geometry": {
        "type": "Polygon",
        "coordinates": [
          [
            [
              79.991758,
              14.448117
            ],
            [
              79.9916,
              14.449287
            ],
            [
              79.991137,
              14.450378
            ],
            [
              79.9904,
              14.451314
            ],
            [
              79.989439,
              14.452033
            ],
            [
              79.98832,
              14.452485
            ],
            [
              79.98712,
              14.452639
            ],
            [
              79.98592,
              14.452485
            ],
            [
              79.984801,
              14.452033
            ],
            [
              79.98384,
              14.451314
            ],
            [
              79.983103,
              14.450378
            ],
            [
              79.98264,
              14.449287
            ],
            [
              79.982482,
              14.448117
            ],
            [
              79.98264,
              14.446947
            ],
            [
              79.983103,
              14.445856
            ],
            [
              79.98384,
              14.44492
            ],
            [
              79.984801,
              14.444201
            ],
            [
              79.98592,
              14.443749
            ],
            [
              79.98712,
              14.443595
            ],
            [
              79.98832,
              14.443749
            ],
            [
              79.989439,
              14.444201
            ],
            [
              79.9904,
              14.44492
            ],
            [
              79.991137,
              14.445856
            ],
            [
              79.9916,
              14.446947
            ],
            [
              79.991758,
              14.448117
            ]
          ]
        ]
      }
    },
    {
      "type": "Feature",
      "properties": {
        "shop_id": "NLR-HLTH-008",
        "shop_name": "Gouthami Mixed Stall (Stonehousepet)",
        "risk_level": "High Risk",
        "buffer_radius_m": 500,
        "exposure_zone": "Secondary Vector & Human Transmission Reach (500m)"
      },
      "geometry": {
        "type": "Polygon",
        "coordinates": [
          [
            [
              79.99177,
              14.448281
            ],
            [
              79.991612,
              14.449451
            ],
            [
              79.991149,
              14.450542
            ],
            [
              79.990412,
              14.451478
            ],
            [
              79.989451,
              14.452197
            ],
            [
              79.988332,
              14.452649
            ],
            [
              79.987132,
              14.452803
            ],
            [
              79.985932,
              14.452649
            ],
            [
              79.984813,
              14.452197
            ],
            [
              79.983852,
              14.451478
            ],
            [
              79.983115,
              14.450542
            ],
            [
              79.982652,
              14.449451
            ],
            [
              79.982494,
              14.448281
            ],
            [
              79.982652,
              14.447111
            ],
            [
              79.983115,
              14.44602
            ],
            [
              79.983852,
              14.445084
            ],
            [
              79.984813,
              14.444365
            ],
            [
              79.985932,
              14.443913
            ],
            [
              79.987132,
              14.443759
            ],
            [
              79.988332,
              14.443913
            ],
            [
              79.989451,
              14.444365
            ],
            [
              79.990412,
              14.445084
            ],
            [
              79.991149,
              14.44602
            ],
            [
              79.991612,
              14.447111
            ],
            [
              79.99177,
              14.448281
            ]
          ]
        ]
      }
    },
    {
      "type": "Feature",
      "properties": {
        "shop_id": "NLR-HLTH-010",
        "shop_name": "Sai Krupa Poultry Stall (Stonehousepet)",
        "risk_level": "High Risk",
        "buffer_radius_m": 500,
        "exposure_zone": "Secondary Vector & Human Transmission Reach (500m)"
      },
      "geometry": {
        "type": "Polygon",
        "coordinates": [
          [
            [
              79.990243,
              14.447303
            ],
            [
              79.990085,
              14.448473
            ],
            [
              79.989622,
              14.449564
            ],
            [
              79.988885,
              14.4505
            ],
            [
              79.987924,
              14.451219
            ],
            [
              79.986805,
              14.451671
            ],
            [
              79.985605,
              14.451825
            ],
            [
              79.984405,
              14.451671
            ],
            [
              79.983286,
              14.451219
            ],
            [
              79.982325,
              14.4505
            ],
            [
              79.981588,
              14.449564
            ],
            [
              79.981125,
              14.448473
            ],
            [
              79.980967,
              14.447303
            ],
            [
              79.981125,
              14.446133
            ],
            [
              79.981588,
              14.445042
            ],
            [
              79.982325,
              14.444106
            ],
            [
              79.983286,
              14.443387
            ],
            [
              79.984405,
              14.442935
            ],
            [
              79.985605,
              14.442781
            ],
            [
              79.986805,
              14.442935
            ],
            [
              79.987924,
              14.443387
            ],
            [
              79.988885,
              14.444106
            ],
            [
              79.989622,
              14.445042
            ],
            [
              79.990085,
              14.446133
            ],
            [
              79.990243,
              14.447303
            ]
          ]
        ]
      }
    },
    {
      "type": "Feature",
      "properties": {
        "shop_id": "NLR-HLTH-012",
        "shop_name": "Gouthami Mutton Stall (Stonehousepet)",
        "risk_level": "High Risk",
        "buffer_radius_m": 500,
        "exposure_zone": "Secondary Vector & Human Transmission Reach (500m)"
      },
      "geometry": {
        "type": "Polygon",
        "coordinates": [
          [
            [
              79.997064,
              14.447601
            ],
            [
              79.996906,
              14.448771
            ],
            [
              79.996443,
              14.449862
            ],
            [
              79.995706,
              14.450798
            ],
            [
              79.994745,
              14.451517
            ],
            [
              79.993626,
              14.451969
            ],
            [
              79.992426,
              14.452123
            ],
            [
              79.991226,
              14.451969
            ],
            [
              79.990107,
              14.451517
            ],
            [
              79.989146,
              14.450798
            ],
            [
              79.988409,
              14.449862
            ],
            [
              79.987946,
              14.448771
            ],
            [
              79.987788,
              14.447601
            ],
            [
              79.987946,
              14.446431
            ],
            [
              79.988409,
              14.44534
            ],
            [
              79.989146,
              14.444404
            ],
            [
              79.990107,
              14.443685
            ],
            [
              79.991226,
              14.443233
            ],
            [
              79.992426,
              14.443079
            ],
            [
              79.993626,
              14.443233
            ],
            [
              79.994745,
              14.443685
            ],
            [
              79.995706,
              14.444404
            ],
            [
              79.996443,
              14.44534
            ],
            [
              79.996906,
              14.446431
            ],
            [
              79.997064,
              14.447601
            ]
          ]
        ]
      }
    },
    {
      "type": "Feature",
      "properties": {
        "shop_id": "NLR-HLTH-020",
        "shop_name": "Annapurna Poultry Stall (Santhapet)",
        "risk_level": "Very High Risk",
        "buffer_radius_m": 500,
        "exposure_zone": "Secondary Vector & Human Transmission Reach (500m)"
      },
      "geometry": {
        "type": "Polygon",
        "coordinates": [
          [
            [
              79.98304,
              14.437939
            ],
            [
              79.982882,
              14.439109
            ],
            [
              79.982419,
              14.4402
            ],
            [
              79.981682,
              14.441136
            ],
            [
              79.980721,
              14.441855
            ],
            [
              79.979602,
              14.442307
            ],
            [
              79.978402,
              14.442461
            ],
            [
              79.977202,
              14.442307
            ],
            [
              79.976083,
              14.441855
            ],
            [
              79.975122,
              14.441136
            ],
            [
              79.974385,
              14.4402
            ],
            [
              79.973922,
              14.439109
            ],
            [
              79.973764,
              14.437939
            ],
            [
              79.973922,
              14.436769
            ],
            [
              79.974385,
              14.435678
            ],
            [
              79.975122,
              14.434742
            ],
            [
              79.976083,
              14.434023
            ],
            [
              79.977202,
              14.433571
            ],
            [
              79.978402,
              14.433417
            ],
            [
              79.979602,
              14.433571
            ],
            [
              79.980721,
              14.434023
            ],
            [
              79.981682,
              14.434742
            ],
            [
              79.982419,
              14.435678
            ],
            [
              79.982882,
              14.436769
            ],
            [
              79.98304,
              14.437939
            ]
          ]
        ]
      }
    },
    {
      "type": "Feature",
      "properties": {
        "shop_id": "NLR-HLTH-023",
        "shop_name": "National Mutton Stall (Santhapet)",
        "risk_level": "High Risk",
        "buffer_radius_m": 500,
        "exposure_zone": "Secondary Vector & Human Transmission Reach (500m)"
      },
      "geometry": {
        "type": "Polygon",
        "coordinates": [
          [
            [
              79.988302,
              14.44226
            ],
            [
              79.988144,
              14.44343
            ],
            [
              79.987681,
              14.444521
            ],
            [
              79.986944,
              14.445457
            ],
            [
              79.985983,
              14.446176
            ],
            [
              79.984864,
              14.446628
            ],
            [
              79.983664,
              14.446782
            ],
            [
              79.982464,
              14.446628
            ],
            [
              79.981345,
              14.446176
            ],
            [
              79.980384,
              14.445457
            ],
            [
              79.979647,
              14.444521
            ],
            [
              79.979184,
              14.44343
            ],
            [
              79.979026,
              14.44226
            ],
            [
              79.979184,
              14.44109
            ],
            [
              79.979647,
              14.439999
            ],
            [
              79.980384,
              14.439063
            ],
            [
              79.981345,
              14.438344
            ],
            [
              79.982464,
              14.437892
            ],
            [
              79.983664,
              14.437738
            ],
            [
              79.984864,
              14.437892
            ],
            [
              79.985983,
              14.438344
            ],
            [
              79.986944,
              14.439063
            ],
            [
              79.987681,
              14.439999
            ],
            [
              79.988144,
              14.44109
            ],
            [
              79.988302,
              14.44226
            ]
          ]
        ]
      }
    },
    {
      "type": "Feature",
      "properties": {
        "shop_id": "NLR-HLTH-024",
        "shop_name": "Gouthami Mutton Stall (Santhapet)",
        "risk_level": "Very High Risk",
        "buffer_radius_m": 500,
        "exposure_zone": "Secondary Vector & Human Transmission Reach (500m)"
      },
      "geometry": {
        "type": "Polygon",
        "coordinates": [
          [
            [
              79.98446,
              14.439015
            ],
            [
              79.984302,
              14.440185
            ],
            [
              79.983839,
              14.441276
            ],
            [
              79.983102,
              14.442212
            ],
            [
              79.982141,
              14.442931
            ],
            [
              79.981022,
              14.443383
            ],
            [
              79.979822,
              14.443537
            ],
            [
              79.978622,
              14.443383
            ],
            [
              79.977503,
              14.442931
            ],
            [
              79.976542,
              14.442212
            ],
            [
              79.975805,
              14.441276
            ],
            [
              79.975342,
              14.440185
            ],
            [
              79.975184,
              14.439015
            ],
            [
              79.975342,
              14.437845
            ],
            [
              79.975805,
              14.436754
            ],
            [
              79.976542,
              14.435818
            ],
            [
              79.977503,
              14.435099
            ],
            [
              79.978622,
              14.434647
            ],
            [
              79.979822,
              14.434493
            ],
            [
              79.981022,
              14.434647
            ],
            [
              79.982141,
              14.435099
            ],
            [
              79.983102,
              14.435818
            ],
            [
              79.983839,
              14.436754
            ],
            [
              79.984302,
              14.437845
            ],
            [
              79.98446,
              14.439015
            ]
          ]
        ]
      }
    },
    {
      "type": "Feature",
      "properties": {
        "shop_id": "NLR-HLTH-025",
        "shop_name": "National Mutton Stall (Santhapet)",
        "risk_level": "High Risk",
        "buffer_radius_m": 500,
        "exposure_zone": "Secondary Vector & Human Transmission Reach (500m)"
      },
      "geometry": {
        "type": "Polygon",
        "coordinates": [
          [
            [
              79.985117,
              14.440202
            ],
            [
              79.984959,
              14.441372
            ],
            [
              79.984496,
              14.442463
            ],
            [
              79.983759,
              14.443399
            ],
            [
              79.982798,
              14.444118
            ],
            [
              79.981679,
              14.44457
            ],
            [
              79.980479,
              14.444724
            ],
            [
              79.979279,
              14.44457
            ],
            [
              79.97816,
              14.444118
            ],
            [
              79.977199,
              14.443399
            ],
            [
              79.976462,
              14.442463
            ],
            [
              79.975999,
              14.441372
            ],
            [
              79.975841,
              14.440202
            ],
            [
              79.975999,
              14.439032
            ],
            [
              79.976462,
              14.437941
            ],
            [
              79.977199,
              14.437005
            ],
            [
              79.97816,
              14.436286
            ],
            [
              79.979279,
              14.435834
            ],
            [
              79.980479,
              14.43568
            ],
            [
              79.981679,
              14.435834
            ],
            [
              79.982798,
              14.436286
            ],
            [
              79.983759,
              14.437005
            ],
            [
              79.984496,
              14.437941
            ],
            [
              79.984959,
              14.439032
            ],
            [
              79.985117,
              14.440202
            ]
          ]
        ]
      }
    },
    {
      "type": "Feature",
      "properties": {
        "shop_id": "NLR-HLTH-027",
        "shop_name": "Sri Venkateswara Poultry Stall (Santhapet)",
        "risk_level": "Very High Risk",
        "buffer_radius_m": 500,
        "exposure_zone": "Secondary Vector & Human Transmission Reach (500m)"
      },
      "geometry": {
        "type": "Polygon",
        "coordinates": [
          [
            [
              79.983861,
              14.43945
            ],
            [
              79.983703,
              14.44062
            ],
            [
              79.98324,
              14.441711
            ],
            [
              79.982503,
              14.442647
            ],
            [
              79.981542,
              14.443366
            ],
            [
              79.980423,
              14.443818
            ],
            [
              79.979223,
              14.443972
            ],
            [
              79.978023,
              14.443818
            ],
            [
              79.976904,
              14.443366
            ],
            [
              79.975943,
              14.442647
            ],
            [
              79.975206,
              14.441711
            ],
            [
              79.974743,
              14.44062
            ],
            [
              79.974585,
              14.43945
            ],
            [
              79.974743,
              14.43828
            ],
            [
              79.975206,
              14.437189
            ],
            [
              79.975943,
              14.436253
            ],
            [
              79.976904,
              14.435534
            ],
            [
              79.978023,
              14.435082
            ],
            [
              79.979223,
              14.434928
            ],
            [
              79.980423,
              14.435082
            ],
            [
              79.981542,
              14.435534
            ],
            [
              79.982503,
              14.436253
            ],
            [
              79.98324,
              14.437189
            ],
            [
              79.983703,
              14.43828
            ],
            [
              79.983861,
              14.43945
            ]
          ]
        ]
      }
    },
    {
      "type": "Feature",
      "properties": {
        "shop_id": "NLR-HLTH-028",
        "shop_name": "Balaji Poultry Stall (Santhapet)",
        "risk_level": "Very High Risk",
        "buffer_radius_m": 500,
        "exposure_zone": "Secondary Vector & Human Transmission Reach (500m)"
      },
      "geometry": {
        "type": "Polygon",
        "coordinates": [
          [
            [
              79.98707,
              14.443433
            ],
            [
              79.986912,
              14.444603
            ],
            [
              79.986449,
              14.445694
            ],
            [
              79.985712,
              14.44663
            ],
            [
              79.984751,
              14.447349
            ],
            [
              79.983632,
              14.447801
            ],
            [
              79.982432,
              14.447955
            ],
            [
              79.981232,
              14.447801
            ],
            [
              79.980113,
              14.447349
            ],
            [
              79.979152,
              14.44663
            ],
            [
              79.978415,
              14.445694
            ],
            [
              79.977952,
              14.444603
            ],
            [
              79.977794,
              14.443433
            ],
            [
              79.977952,
              14.442263
            ],
            [
              79.978415,
              14.441172
            ],
            [
              79.979152,
              14.440236
            ],
            [
              79.980113,
              14.439517
            ],
            [
              79.981232,
              14.439065
            ],
            [
              79.982432,
              14.438911
            ],
            [
              79.983632,
              14.439065
            ],
            [
              79.984751,
              14.439517
            ],
            [
              79.985712,
              14.440236
            ],
            [
              79.986449,
              14.441172
            ],
            [
              79.986912,
              14.442263
            ],
            [
              79.98707,
              14.443433
            ]
          ]
        ]
      }
    },
    {
      "type": "Feature",
      "properties": {
        "shop_id": "NLR-HLTH-029",
        "shop_name": "Star Mutton Stall (Santhapet)",
        "risk_level": "High Risk",
        "buffer_radius_m": 500,
        "exposure_zone": "Secondary Vector & Human Transmission Reach (500m)"
      },
      "geometry": {
        "type": "Polygon",
        "coordinates": [
          [
            [
              79.982424,
              14.438865
            ],
            [
              79.982266,
              14.440035
            ],
            [
              79.981803,
              14.441126
            ],
            [
              79.981066,
              14.442062
            ],
            [
              79.980105,
              14.442781
            ],
            [
              79.978986,
              14.443233
            ],
            [
              79.977786,
              14.443387
            ],
            [
              79.976586,
              14.443233
            ],
            [
              79.975467,
              14.442781
            ],
            [
              79.974506,
              14.442062
            ],
            [
              79.973769,
              14.441126
            ],
            [
              79.973306,
              14.440035
            ],
            [
              79.973148,
              14.438865
            ],
            [
              79.973306,
              14.437695
            ],
            [
              79.973769,
              14.436604
            ],
            [
              79.974506,
              14.435668
            ],
            [
              79.975467,
              14.434949
            ],
            [
              79.976586,
              14.434497
            ],
            [
              79.977786,
              14.434343
            ],
            [
              79.978986,
              14.434497
            ],
            [
              79.980105,
              14.434949
            ],
            [
              79.981066,
              14.435668
            ],
            [
              79.981803,
              14.436604
            ],
            [
              79.982266,
              14.437695
            ],
            [
              79.982424,
              14.438865
            ]
          ]
        ]
      }
    },
    {
      "type": "Feature",
      "properties": {
        "shop_id": "NLR-HLTH-030",
        "shop_name": "Gouthami Poultry Stall (Santhapet)",
        "risk_level": "Very High Risk",
        "buffer_radius_m": 500,
        "exposure_zone": "Secondary Vector & Human Transmission Reach (500m)"
      },
      "geometry": {
        "type": "Polygon",
        "coordinates": [
          [
            [
              79.985756,
              14.439945
            ],
            [
              79.985598,
              14.441115
            ],
            [
              79.985135,
              14.442206
            ],
            [
              79.984398,
              14.443142
            ],
            [
              79.983437,
              14.443861
            ],
            [
              79.982318,
              14.444313
            ],
            [
              79.981118,
              14.444467
            ],
            [
              79.979918,
              14.444313
            ],
            [
              79.978799,
              14.443861
            ],
            [
              79.977838,
              14.443142
            ],
            [
              79.977101,
              14.442206
            ],
            [
              79.976638,
              14.441115
            ],
            [
              79.97648,
              14.439945
            ],
            [
              79.976638,
              14.438775
            ],
            [
              79.977101,
              14.437684
            ],
            [
              79.977838,
              14.436748
            ],
            [
              79.978799,
              14.436029
            ],
            [
              79.979918,
              14.435577
            ],
            [
              79.981118,
              14.435423
            ],
            [
              79.982318,
              14.435577
            ],
            [
              79.983437,
              14.436029
            ],
            [
              79.984398,
              14.436748
            ],
            [
              79.985135,
              14.437684
            ],
            [
              79.985598,
              14.438775
            ],
            [
              79.985756,
              14.439945
            ]
          ]
        ]
      }
    },
    {
      "type": "Feature",
      "properties": {
        "shop_id": "NLR-HLTH-031",
        "shop_name": "Star Poultry Stall (Ranganayakulapet)",
        "risk_level": "High Risk",
        "buffer_radius_m": 500,
        "exposure_zone": "Secondary Vector & Human Transmission Reach (500m)"
      },
      "geometry": {
        "type": "Polygon",
        "coordinates": [
          [
            [
              79.987121,
              14.453487
            ],
            [
              79.986963,
              14.454657
            ],
            [
              79.9865,
              14.455748
            ],
            [
              79.985763,
              14.456684
            ],
            [
              79.984802,
              14.457403
            ],
            [
              79.983683,
              14.457855
            ],
            [
              79.982483,
              14.458009
            ],
            [
              79.981283,
              14.457855
            ],
            [
              79.980164,
              14.457403
            ],
            [
              79.979203,
              14.456684
            ],
            [
              79.978466,
              14.455748
            ],
            [
              79.978003,
              14.454657
            ],
            [
              79.977845,
              14.453487
            ],
            [
              79.978003,
              14.452317
            ],
            [
              79.978466,
              14.451226
            ],
            [
              79.979203,
              14.45029
            ],
            [
              79.980164,
              14.449571
            ],
            [
              79.981283,
              14.449119
            ],
            [
              79.982483,
              14.448965
            ],
            [
              79.983683,
              14.449119
            ],
            [
              79.984802,
              14.449571
            ],
            [
              79.985763,
              14.45029
            ],
            [
              79.9865,
              14.451226
            ],
            [
              79.986963,
              14.452317
            ],
            [
              79.987121,
              14.453487
            ]
          ]
        ]
      }
    },
    {
      "type": "Feature",
      "properties": {
        "shop_id": "NLR-HLTH-032",
        "shop_name": "Star Poultry Stall (Ranganayakulapet)",
        "risk_level": "High Risk",
        "buffer_radius_m": 500,
        "exposure_zone": "Secondary Vector & Human Transmission Reach (500m)"
      },
      "geometry": {
        "type": "Polygon",
        "coordinates": [
          [
            [
              79.992153,
              14.450096
            ],
            [
              79.991995,
              14.451266
            ],
            [
              79.991532,
              14.452357
            ],
            [
              79.990795,
              14.453293
            ],
            [
              79.989834,
              14.454012
            ],
            [
              79.988715,
              14.454464
            ],
            [
              79.987515,
              14.454618
            ],
            [
              79.986315,
              14.454464
            ],
            [
              79.985196,
              14.454012
            ],
            [
              79.984235,
              14.453293
            ],
            [
              79.983498,
              14.452357
            ],
            [
              79.983035,
              14.451266
            ],
            [
              79.982877,
              14.450096
            ],
            [
              79.983035,
              14.448926
            ],
            [
              79.983498,
              14.447835
            ],
            [
              79.984235,
              14.446899
            ],
            [
              79.985196,
              14.44618
            ],
            [
              79.986315,
              14.445728
            ],
            [
              79.987515,
              14.445574
            ],
            [
              79.988715,
              14.445728
            ],
            [
              79.989834,
              14.44618
            ],
            [
              79.990795,
              14.446899
            ],
            [
              79.991532,
              14.447835
            ],
            [
              79.991995,
              14.448926
            ],
            [
              79.992153,
              14.450096
            ]
          ]
        ]
      }
    },
    {
      "type": "Feature",
      "properties": {
        "shop_id": "NLR-HLTH-033",
        "shop_name": "Balaji Poultry Stall (Ranganayakulapet)",
        "risk_level": "High Risk",
        "buffer_radius_m": 500,
        "exposure_zone": "Secondary Vector & Human Transmission Reach (500m)"
      },
      "geometry": {
        "type": "Polygon",
        "coordinates": [
          [
            [
              79.991008,
              14.454383
            ],
            [
              79.99085,
              14.455553
            ],
            [
              79.990387,
              14.456644
            ],
            [
              79.98965,
              14.45758
            ],
            [
              79.988689,
              14.458299
            ],
            [
              79.98757,
              14.458751
            ],
            [
              79.98637,
              14.458905
            ],
            [
              79.98517,
              14.458751
            ],
            [
              79.984051,
              14.458299
            ],
            [
              79.98309,
              14.45758
            ],
            [
              79.982353,
              14.456644
            ],
            [
              79.98189,
              14.455553
            ],
            [
              79.981732,
              14.454383
            ],
            [
              79.98189,
              14.453213
            ],
            [
              79.982353,
              14.452122
            ],
            [
              79.98309,
              14.451186
            ],
            [
              79.984051,
              14.450467
            ],
            [
              79.98517,
              14.450015
            ],
            [
              79.98637,
              14.449861
            ],
            [
              79.98757,
              14.450015
            ],
            [
              79.988689,
              14.450467
            ],
            [
              79.98965,
              14.451186
            ],
            [
              79.990387,
              14.452122
            ],
            [
              79.99085,
              14.453213
            ],
            [
              79.991008,
              14.454383
            ]
          ]
        ]
      }
    },
    {
      "type": "Feature",
      "properties": {
        "shop_id": "NLR-HLTH-034",
        "shop_name": "Al-Madina Fish Stall (Ranganayakulapet)",
        "risk_level": "Very High Risk",
        "buffer_radius_m": 500,
        "exposure_zone": "Secondary Vector & Human Transmission Reach (500m)"
      },
      "geometry": {
        "type": "Polygon",
        "coordinates": [
          [
            [
              79.991884,
              14.45649
            ],
            [
              79.991726,
              14.45766
            ],
            [
              79.991263,
              14.458751
            ],
            [
              79.990526,
              14.459687
            ],
            [
              79.989565,
              14.460406
            ],
            [
              79.988446,
              14.460858
            ],
            [
              79.987246,
              14.461012
            ],
            [
              79.986046,
              14.460858
            ],
            [
              79.984927,
              14.460406
            ],
            [
              79.983966,
              14.459687
            ],
            [
              79.983229,
              14.458751
            ],
            [
              79.982766,
              14.45766
            ],
            [
              79.982608,
              14.45649
            ],
            [
              79.982766,
              14.45532
            ],
            [
              79.983229,
              14.454229
            ],
            [
              79.983966,
              14.453293
            ],
            [
              79.984927,
              14.452574
            ],
            [
              79.986046,
              14.452122
            ],
            [
              79.987246,
              14.451968
            ],
            [
              79.988446,
              14.452122
            ],
            [
              79.989565,
              14.452574
            ],
            [
              79.990526,
              14.453293
            ],
            [
              79.991263,
              14.454229
            ],
            [
              79.991726,
              14.45532
            ],
            [
              79.991884,
              14.45649
            ]
          ]
        ]
      }
    },
    {
      "type": "Feature",
      "properties": {
        "shop_id": "NLR-HLTH-035",
        "shop_name": "Sai Krupa Fish Stall (Ranganayakulapet)",
        "risk_level": "High Risk",
        "buffer_radius_m": 500,
        "exposure_zone": "Secondary Vector & Human Transmission Reach (500m)"
      },
      "geometry": {
        "type": "Polygon",
        "coordinates": [
          [
            [
              79.990508,
              14.451808
            ],
            [
              79.99035,
              14.452978
            ],
            [
              79.989887,
              14.454069
            ],
            [
              79.98915,
              14.455005
            ],
            [
              79.988189,
              14.455724
            ],
            [
              79.98707,
              14.456176
            ],
            [
              79.98587,
              14.45633
            ],
            [
              79.98467,
              14.456176
            ],
            [
              79.983551,
              14.455724
            ],
            [
              79.98259,
              14.455005
            ],
            [
              79.981853,
              14.454069
            ],
            [
              79.98139,
              14.452978
            ],
            [
              79.981232,
              14.451808
            ],
            [
              79.98139,
              14.450638
            ],
            [
              79.981853,
              14.449547
            ],
            [
              79.98259,
              14.448611
            ],
            [
              79.983551,
              14.447892
            ],
            [
              79.98467,
              14.44744
            ],
            [
              79.98587,
              14.447286
            ],
            [
              79.98707,
              14.44744
            ],
            [
              79.988189,
              14.447892
            ],
            [
              79.98915,
              14.448611
            ],
            [
              79.989887,
              14.449547
            ],
            [
              79.99035,
              14.450638
            ],
            [
              79.990508,
              14.451808
            ]
          ]
        ]
      }
    },
    {
      "type": "Feature",
      "properties": {
        "shop_id": "NLR-HLTH-036",
        "shop_name": "National Fish Stall (Ranganayakulapet)",
        "risk_level": "High Risk",
        "buffer_radius_m": 500,
        "exposure_zone": "Secondary Vector & Human Transmission Reach (500m)"
      },
      "geometry": {
        "type": "Polygon",
        "coordinates": [
          [
            [
              79.992902,
              14.450592
            ],
            [
              79.992744,
              14.451762
            ],
            [
              79.992281,
              14.452853
            ],
            [
              79.991544,
              14.453789
            ],
            [
              79.990583,
              14.454508
            ],
            [
              79.989464,
              14.45496
            ],
            [
              79.988264,
              14.455114
            ],
            [
              79.987064,
              14.45496
            ],
            [
              79.985945,
              14.454508
            ],
            [
              79.984984,
              14.453789
            ],
            [
              79.984247,
              14.452853
            ],
            [
              79.983784,
              14.451762
            ],
            [
              79.983626,
              14.450592
            ],
            [
              79.983784,
              14.449422
            ],
            [
              79.984247,
              14.448331
            ],
            [
              79.984984,
              14.447395
            ],
            [
              79.985945,
              14.446676
            ],
            [
              79.987064,
              14.446224
            ],
            [
              79.988264,
              14.44607
            ],
            [
              79.989464,
              14.446224
            ],
            [
              79.990583,
              14.446676
            ],
            [
              79.991544,
              14.447395
            ],
            [
              79.992281,
              14.448331
            ],
            [
              79.992744,
              14.449422
            ],
            [
              79.992902,
              14.450592
            ]
          ]
        ]
      }
    },
    {
      "type": "Feature",
      "properties": {
        "shop_id": "NLR-HLTH-037",
        "shop_name": "Gouthami Fish Stall (Ranganayakulapet)",
        "risk_level": "Very High Risk",
        "buffer_radius_m": 500,
        "exposure_zone": "Secondary Vector & Human Transmission Reach (500m)"
      },
      "geometry": {
        "type": "Polygon",
        "coordinates": [
          [
            [
              79.993239,
              14.453234
            ],
            [
              79.993081,
              14.454404
            ],
            [
              79.992618,
              14.455495
            ],
            [
              79.991881,
              14.456431
            ],
            [
              79.99092,
              14.45715
            ],
            [
              79.989801,
              14.457602
            ],
            [
              79.988601,
              14.457756
            ],
            [
              79.987401,
              14.457602
            ],
            [
              79.986282,
              14.45715
            ],
            [
              79.985321,
              14.456431
            ],
            [
              79.984584,
              14.455495
            ],
            [
              79.984121,
              14.454404
            ],
            [
              79.983963,
              14.453234
            ],
            [
              79.984121,
              14.452064
            ],
            [
              79.984584,
              14.450973
            ],
            [
              79.985321,
              14.450037
            ],
            [
              79.986282,
              14.449318
            ],
            [
              79.987401,
              14.448866
            ],
            [
              79.988601,
              14.448712
            ],
            [
              79.989801,
              14.448866
            ],
            [
              79.99092,
              14.449318
            ],
            [
              79.991881,
              14.450037
            ],
            [
              79.992618,
              14.450973
            ],
            [
              79.993081,
              14.452064
            ],
            [
              79.993239,
              14.453234
            ]
          ]
        ]
      }
    },
    {
      "type": "Feature",
      "properties": {
        "shop_id": "NLR-HLTH-038",
        "shop_name": "Annapurna Fish Stall (Ranganayakulapet)",
        "risk_level": "High Risk",
        "buffer_radius_m": 500,
        "exposure_zone": "Secondary Vector & Human Transmission Reach (500m)"
      },
      "geometry": {
        "type": "Polygon",
        "coordinates": [
          [
            [
              79.990751,
              14.456561
            ],
            [
              79.990593,
              14.457731
            ],
            [
              79.99013,
              14.458822
            ],
            [
              79.989393,
              14.459758
            ],
            [
              79.988432,
              14.460477
            ],
            [
              79.987313,
              14.460929
            ],
            [
              79.986113,
              14.461083
            ],
            [
              79.984913,
              14.460929
            ],
            [
              79.983794,
              14.460477
            ],
            [
              79.982833,
              14.459758
            ],
            [
              79.982096,
              14.458822
            ],
            [
              79.981633,
              14.457731
            ],
            [
              79.981475,
              14.456561
            ],
            [
              79.981633,
              14.455391
            ],
            [
              79.982096,
              14.4543
            ],
            [
              79.982833,
              14.453364
            ],
            [
              79.983794,
              14.452645
            ],
            [
              79.984913,
              14.452193
            ],
            [
              79.986113,
              14.452039
            ],
            [
              79.987313,
              14.452193
            ],
            [
              79.988432,
              14.452645
            ],
            [
              79.989393,
              14.453364
            ],
            [
              79.99013,
              14.4543
            ],
            [
              79.990593,
              14.455391
            ],
            [
              79.990751,
              14.456561
            ]
          ]
        ]
      }
    },
    {
      "type": "Feature",
      "properties": {
        "shop_id": "NLR-HLTH-039",
        "shop_name": "Star Fish Stall (Ranganayakulapet)",
        "risk_level": "Very High Risk",
        "buffer_radius_m": 500,
        "exposure_zone": "Secondary Vector & Human Transmission Reach (500m)"
      },
      "geometry": {
        "type": "Polygon",
        "coordinates": [
          [
            [
              79.991836,
              14.450964
            ],
            [
              79.991678,
              14.452134
            ],
            [
              79.991215,
              14.453225
            ],
            [
              79.990478,
              14.454161
            ],
            [
              79.989517,
              14.45488
            ],
            [
              79.988398,
              14.455332
            ],
            [
              79.987198,
              14.455486
            ],
            [
              79.985998,
              14.455332
            ],
            [
              79.984879,
              14.45488
            ],
            [
              79.983918,
              14.454161
            ],
            [
              79.983181,
              14.453225
            ],
            [
              79.982718,
              14.452134
            ],
            [
              79.98256,
              14.450964
            ],
            [
              79.982718,
              14.449794
            ],
            [
              79.983181,
              14.448703
            ],
            [
              79.983918,
              14.447767
            ],
            [
              79.984879,
              14.447048
            ],
            [
              79.985998,
              14.446596
            ],
            [
              79.987198,
              14.446442
            ],
            [
              79.988398,
              14.446596
            ],
            [
              79.989517,
              14.447048
            ],
            [
              79.990478,
              14.447767
            ],
            [
              79.991215,
              14.448703
            ],
            [
              79.991678,
              14.449794
            ],
            [
              79.991836,
              14.450964
            ]
          ]
        ]
      }
    },
    {
      "type": "Feature",
      "properties": {
        "shop_id": "NLR-HLTH-040",
        "shop_name": "Star Poultry Stall (Ranganayakulapet)",
        "risk_level": "High Risk",
        "buffer_radius_m": 500,
        "exposure_zone": "Secondary Vector & Human Transmission Reach (500m)"
      },
      "geometry": {
        "type": "Polygon",
        "coordinates": [
          [
            [
              79.99418,
              14.453251
            ],
            [
              79.994022,
              14.454421
            ],
            [
              79.993559,
              14.455512
            ],
            [
              79.992822,
              14.456448
            ],
            [
              79.991861,
              14.457167
            ],
            [
              79.990742,
              14.457619
            ],
            [
              79.989542,
              14.457773
            ],
            [
              79.988342,
              14.457619
            ],
            [
              79.987223,
              14.457167
            ],
            [
              79.986262,
              14.456448
            ],
            [
              79.985525,
              14.455512
            ],
            [
              79.985062,
              14.454421
            ],
            [
              79.984904,
              14.453251
            ],
            [
              79.985062,
              14.452081
            ],
            [
              79.985525,
              14.45099
            ],
            [
              79.986262,
              14.450054
            ],
            [
              79.987223,
              14.449335
            ],
            [
              79.988342,
              14.448883
            ],
            [
              79.989542,
              14.448729
            ],
            [
              79.990742,
              14.448883
            ],
            [
              79.991861,
              14.449335
            ],
            [
              79.992822,
              14.450054
            ],
            [
              79.993559,
              14.45099
            ],
            [
              79.994022,
              14.452081
            ],
            [
              79.99418,
              14.453251
            ]
          ]
        ]
      }
    },
    {
      "type": "Feature",
      "properties": {
        "shop_id": "NLR-HLTH-041",
        "shop_name": "Balaji Poultry Stall (Vedayapalem)",
        "risk_level": "High Risk",
        "buffer_radius_m": 500,
        "exposure_zone": "Secondary Vector & Human Transmission Reach (500m)"
      },
      "geometry": {
        "type": "Polygon",
        "coordinates": [
          [
            [
              79.969621,
              14.41985
            ],
            [
              79.969463,
              14.42102
            ],
            [
              79.969,
              14.422111
            ],
            [
              79.968263,
              14.423047
            ],
            [
              79.967302,
              14.423766
            ],
            [
              79.966183,
              14.424218
            ],
            [
              79.964983,
              14.424372
            ],
            [
              79.963783,
              14.424218
            ],
            [
              79.962664,
              14.423766
            ],
            [
              79.961703,
              14.423047
            ],
            [
              79.960966,
              14.422111
            ],
            [
              79.960503,
              14.42102
            ],
            [
              79.960345,
              14.41985
            ],
            [
              79.960503,
              14.41868
            ],
            [
              79.960966,
              14.417589
            ],
            [
              79.961703,
              14.416653
            ],
            [
              79.962664,
              14.415934
            ],
            [
              79.963783,
              14.415482
            ],
            [
              79.964983,
              14.415328
            ],
            [
              79.966183,
              14.415482
            ],
            [
              79.967302,
              14.415934
            ],
            [
              79.968263,
              14.416653
            ],
            [
              79.969,
              14.417589
            ],
            [
              79.969463,
              14.41868
            ],
            [
              79.969621,
              14.41985
            ]
          ]
        ]
      }
    },
    {
      "type": "Feature",
      "properties": {
        "shop_id": "NLR-HLTH-042",
        "shop_name": "Coastal Choice Mutton Stall (Vedayapalem)",
        "risk_level": "High Risk",
        "buffer_radius_m": 500,
        "exposure_zone": "Secondary Vector & Human Transmission Reach (500m)"
      },
      "geometry": {
        "type": "Polygon",
        "coordinates": [
          [
            [
              79.967692,
              14.414967
            ],
            [
              79.967534,
              14.416137
            ],
            [
              79.967071,
              14.417228
            ],
            [
              79.966334,
              14.418164
            ],
            [
              79.965373,
              14.418883
            ],
            [
              79.964254,
              14.419335
            ],
            [
              79.963054,
              14.419489
            ],
            [
              79.961854,
              14.419335
            ],
            [
              79.960735,
              14.418883
            ],
            [
              79.959774,
              14.418164
            ],
            [
              79.959037,
              14.417228
            ],
            [
              79.958574,
              14.416137
            ],
            [
              79.958416,
              14.414967
            ],
            [
              79.958574,
              14.413797
            ],
            [
              79.959037,
              14.412706
            ],
            [
              79.959774,
              14.41177
            ],
            [
              79.960735,
              14.411051
            ],
            [
              79.961854,
              14.410599
            ],
            [
              79.963054,
              14.410445
            ],
            [
              79.964254,
              14.410599
            ],
            [
              79.965373,
              14.411051
            ],
            [
              79.966334,
              14.41177
            ],
            [
              79.967071,
              14.412706
            ],
            [
              79.967534,
              14.413797
            ],
            [
              79.967692,
              14.414967
            ]
          ]
        ]
      }
    },
    {
      "type": "Feature",
      "properties": {
        "shop_id": "NLR-HLTH-047",
        "shop_name": "Pennar Quality Poultry Stall (Vedayapalem)",
        "risk_level": "High Risk",
        "buffer_radius_m": 500,
        "exposure_zone": "Secondary Vector & Human Transmission Reach (500m)"
      },
      "geometry": {
        "type": "Polygon",
        "coordinates": [
          [
            [
              79.967978,
              14.416943
            ],
            [
              79.96782,
              14.418113
            ],
            [
              79.967357,
              14.419204
            ],
            [
              79.96662,
              14.42014
            ],
            [
              79.965659,
              14.420859
            ],
            [
              79.96454,
              14.421311
            ],
            [
              79.96334,
              14.421465
            ],
            [
              79.96214,
              14.421311
            ],
            [
              79.961021,
              14.420859
            ],
            [
              79.96006,
              14.42014
            ],
            [
              79.959323,
              14.419204
            ],
            [
              79.95886,
              14.418113
            ],
            [
              79.958702,
              14.416943
            ],
            [
              79.95886,
              14.415773
            ],
            [
              79.959323,
              14.414682
            ],
            [
              79.96006,
              14.413746
            ],
            [
              79.961021,
              14.413027
            ],
            [
              79.96214,
              14.412575
            ],
            [
              79.96334,
              14.412421
            ],
            [
              79.96454,
              14.412575
            ],
            [
              79.965659,
              14.413027
            ],
            [
              79.96662,
              14.413746
            ],
            [
              79.967357,
              14.414682
            ],
            [
              79.96782,
              14.415773
            ],
            [
              79.967978,
              14.416943
            ]
          ]
        ]
      }
    },
    {
      "type": "Feature",
      "properties": {
        "shop_id": "NLR-HLTH-049",
        "shop_name": "Gouthami Poultry Stall (Vedayapalem)",
        "risk_level": "Very High Risk",
        "buffer_radius_m": 500,
        "exposure_zone": "Secondary Vector & Human Transmission Reach (500m)"
      },
      "geometry": {
        "type": "Polygon",
        "coordinates": [
          [
            [
              79.970003,
              14.418532
            ],
            [
              79.969845,
              14.419702
            ],
            [
              79.969382,
              14.420793
            ],
            [
              79.968645,
              14.421729
            ],
            [
              79.967684,
              14.422448
            ],
            [
              79.966565,
              14.4229
            ],
            [
              79.965365,
              14.423054
            ],
            [
              79.964165,
              14.4229
            ],
            [
              79.963046,
              14.422448
            ],
            [
              79.962085,
              14.421729
            ],
            [
              79.961348,
              14.420793
            ],
            [
              79.960885,
              14.419702
            ],
            [
              79.960727,
              14.418532
            ],
            [
              79.960885,
              14.417362
            ],
            [
              79.961348,
              14.416271
            ],
            [
              79.962085,
              14.415335
            ],
            [
              79.963046,
              14.414616
            ],
            [
              79.964165,
              14.414164
            ],
            [
              79.965365,
              14.41401
            ],
            [
              79.966565,
              14.414164
            ],
            [
              79.967684,
              14.414616
            ],
            [
              79.968645,
              14.415335
            ],
            [
              79.969382,
              14.416271
            ],
            [
              79.969845,
              14.417362
            ],
            [
              79.970003,
              14.418532
            ]
          ]
        ]
      }
    },
    {
      "type": "Feature",
      "properties": {
        "shop_id": "NLR-HLTH-050",
        "shop_name": "National Poultry Stall (Vedayapalem)",
        "risk_level": "High Risk",
        "buffer_radius_m": 500,
        "exposure_zone": "Secondary Vector & Human Transmission Reach (500m)"
      },
      "geometry": {
        "type": "Polygon",
        "coordinates": [
          [
            [
              79.972796,
              14.420941
            ],
            [
              79.972638,
              14.422111
            ],
            [
              79.972175,
              14.423202
            ],
            [
              79.971438,
              14.424138
            ],
            [
              79.970477,
              14.424857
            ],
            [
              79.969358,
              14.425309
            ],
            [
              79.968158,
              14.425463
            ],
            [
              79.966958,
              14.425309
            ],
            [
              79.965839,
              14.424857
            ],
            [
              79.964878,
              14.424138
            ],
            [
              79.964141,
              14.423202
            ],
            [
              79.963678,
              14.422111
            ],
            [
              79.96352,
              14.420941
            ],
            [
              79.963678,
              14.419771
            ],
            [
              79.964141,
              14.41868
            ],
            [
              79.964878,
              14.417744
            ],
            [
              79.965839,
              14.417025
            ],
            [
              79.966958,
              14.416573
            ],
            [
              79.968158,
              14.416419
            ],
            [
              79.969358,
              14.416573
            ],
            [
              79.970477,
              14.417025
            ],
            [
              79.971438,
              14.417744
            ],
            [
              79.972175,
              14.41868
            ],
            [
              79.972638,
              14.419771
            ],
            [
              79.972796,
              14.420941
            ]
          ]
        ]
      }
    },
    {
      "type": "Feature",
      "properties": {
        "shop_id": "NLR-HLTH-051",
        "shop_name": "Nellore Fresh Mutton Stall (Kovur)",
        "risk_level": "High Risk",
        "buffer_radius_m": 500,
        "exposure_zone": "Secondary Vector & Human Transmission Reach (500m)"
      },
      "geometry": {
        "type": "Polygon",
        "coordinates": [
          [
            [
              79.979397,
              14.493883
            ],
            [
              79.979239,
              14.495053
            ],
            [
              79.978776,
              14.496144
            ],
            [
              79.978039,
              14.49708
            ],
            [
              79.977078,
              14.497799
            ],
            [
              79.975959,
              14.498251
            ],
            [
              79.974759,
              14.498405
            ],
            [
              79.973559,
              14.498251
            ],
            [
              79.97244,
              14.497799
            ],
            [
              79.971479,
              14.49708
            ],
            [
              79.970742,
              14.496144
            ],
            [
              79.970279,
              14.495053
            ],
            [
              79.970121,
              14.493883
            ],
            [
              79.970279,
              14.492713
            ],
            [
              79.970742,
              14.491622
            ],
            [
              79.971479,
              14.490686
            ],
            [
              79.97244,
              14.489967
            ],
            [
              79.973559,
              14.489515
            ],
            [
              79.974759,
              14.489361
            ],
            [
              79.975959,
              14.489515
            ],
            [
              79.977078,
              14.489967
            ],
            [
              79.978039,
              14.490686
            ],
            [
              79.978776,
              14.491622
            ],
            [
              79.979239,
              14.492713
            ],
            [
              79.979397,
              14.493883
            ]
          ]
        ]
      }
    },
    {
      "type": "Feature",
      "properties": {
        "shop_id": "NLR-HLTH-056",
        "shop_name": "Coastal Choice Poultry Stall (Kovur)",
        "risk_level": "High Risk",
        "buffer_radius_m": 500,
        "exposure_zone": "Secondary Vector & Human Transmission Reach (500m)"
      },
      "geometry": {
        "type": "Polygon",
        "coordinates": [
          [
            [
              79.982604,
              14.495956
            ],
            [
              79.982446,
              14.497126
            ],
            [
              79.981983,
              14.498217
            ],
            [
              79.981246,
              14.499153
            ],
            [
              79.980285,
              14.499872
            ],
            [
              79.979166,
              14.500324
            ],
            [
              79.977966,
              14.500478
            ],
            [
              79.976766,
              14.500324
            ],
            [
              79.975647,
              14.499872
            ],
            [
              79.974686,
              14.499153
            ],
            [
              79.973949,
              14.498217
            ],
            [
              79.973486,
              14.497126
            ],
            [
              79.973328,
              14.495956
            ],
            [
              79.973486,
              14.494786
            ],
            [
              79.973949,
              14.493695
            ],
            [
              79.974686,
              14.492759
            ],
            [
              79.975647,
              14.49204
            ],
            [
              79.976766,
              14.491588
            ],
            [
              79.977966,
              14.491434
            ],
            [
              79.979166,
              14.491588
            ],
            [
              79.980285,
              14.49204
            ],
            [
              79.981246,
              14.492759
            ],
            [
              79.981983,
              14.493695
            ],
            [
              79.982446,
              14.494786
            ],
            [
              79.982604,
              14.495956
            ]
          ]
        ]
      }
    },
    {
      "type": "Feature",
      "properties": {
        "shop_id": "NLR-HLTH-057",
        "shop_name": "National Poultry Stall (Kovur)",
        "risk_level": "High Risk",
        "buffer_radius_m": 500,
        "exposure_zone": "Secondary Vector & Human Transmission Reach (500m)"
      },
      "geometry": {
        "type": "Polygon",
        "coordinates": [
          [
            [
              79.981109,
              14.493228
            ],
            [
              79.980951,
              14.494398
            ],
            [
              79.980488,
              14.495489
            ],
            [
              79.979751,
              14.496425
            ],
            [
              79.97879,
              14.497144
            ],
            [
              79.977671,
              14.497596
            ],
            [
              79.976471,
              14.49775
            ],
            [
              79.975271,
              14.497596
            ],
            [
              79.974152,
              14.497144
            ],
            [
              79.973191,
              14.496425
            ],
            [
              79.972454,
              14.495489
            ],
            [
              79.971991,
              14.494398
            ],
            [
              79.971833,
              14.493228
            ],
            [
              79.971991,
              14.492058
            ],
            [
              79.972454,
              14.490967
            ],
            [
              79.973191,
              14.490031
            ],
            [
              79.974152,
              14.489312
            ],
            [
              79.975271,
              14.48886
            ],
            [
              79.976471,
              14.488706
            ],
            [
              79.977671,
              14.48886
            ],
            [
              79.97879,
              14.489312
            ],
            [
              79.979751,
              14.490031
            ],
            [
              79.980488,
              14.490967
            ],
            [
              79.980951,
              14.492058
            ],
            [
              79.981109,
              14.493228
            ]
          ]
        ]
      }
    },
    {
      "type": "Feature",
      "properties": {
        "shop_id": "NLR-HLTH-058",
        "shop_name": "Star Mixed Stall (Kovur)",
        "risk_level": "Very High Risk",
        "buffer_radius_m": 500,
        "exposure_zone": "Secondary Vector & Human Transmission Reach (500m)"
      },
      "geometry": {
        "type": "Polygon",
        "coordinates": [
          [
            [
              79.981191,
              14.493955
            ],
            [
              79.981033,
              14.495125
            ],
            [
              79.98057,
              14.496216
            ],
            [
              79.979833,
              14.497152
            ],
            [
              79.978872,
              14.497871
            ],
            [
              79.977753,
              14.498323
            ],
            [
              79.976553,
              14.498477
            ],
            [
              79.975353,
              14.498323
            ],
            [
              79.974234,
              14.497871
            ],
            [
              79.973273,
              14.497152
            ],
            [
              79.972536,
              14.496216
            ],
            [
              79.972073,
              14.495125
            ],
            [
              79.971915,
              14.493955
            ],
            [
              79.972073,
              14.492785
            ],
            [
              79.972536,
              14.491694
            ],
            [
              79.973273,
              14.490758
            ],
            [
              79.974234,
              14.490039
            ],
            [
              79.975353,
              14.489587
            ],
            [
              79.976553,
              14.489433
            ],
            [
              79.977753,
              14.489587
            ],
            [
              79.978872,
              14.490039
            ],
            [
              79.979833,
              14.490758
            ],
            [
              79.98057,
              14.491694
            ],
            [
              79.981033,
              14.492785
            ],
            [
              79.981191,
              14.493955
            ]
          ]
        ]
      }
    },
    {
      "type": "Feature",
      "properties": {
        "shop_id": "NLR-HLTH-059",
        "shop_name": "Sri Venkateswara Mixed Stall (Kovur)",
        "risk_level": "Very High Risk",
        "buffer_radius_m": 500,
        "exposure_zone": "Secondary Vector & Human Transmission Reach (500m)"
      },
      "geometry": {
        "type": "Polygon",
        "coordinates": [
          [
            [
              79.981804,
              14.494069
            ],
            [
              79.981646,
              14.495239
            ],
            [
              79.981183,
              14.49633
            ],
            [
              79.980446,
              14.497266
            ],
            [
              79.979485,
              14.497985
            ],
            [
              79.978366,
              14.498437
            ],
            [
              79.977166,
              14.498591
            ],
            [
              79.975966,
              14.498437
            ],
            [
              79.974847,
              14.497985
            ],
            [
              79.973886,
              14.497266
            ],
            [
              79.973149,
              14.49633
            ],
            [
              79.972686,
              14.495239
            ],
            [
              79.972528,
              14.494069
            ],
            [
              79.972686,
              14.492899
            ],
            [
              79.973149,
              14.491808
            ],
            [
              79.973886,
              14.490872
            ],
            [
              79.974847,
              14.490153
            ],
            [
              79.975966,
              14.489701
            ],
            [
              79.977166,
              14.489547
            ],
            [
              79.978366,
              14.489701
            ],
            [
              79.979485,
              14.490153
            ],
            [
              79.980446,
              14.490872
            ],
            [
              79.981183,
              14.491808
            ],
            [
              79.981646,
              14.492899
            ],
            [
              79.981804,
              14.494069
            ]
          ]
        ]
      }
    },
    {
      "type": "Feature",
      "properties": {
        "shop_id": "NLR-HLTH-060",
        "shop_name": "Sri Venkateswara Poultry Stall (Kovur)",
        "risk_level": "High Risk",
        "buffer_radius_m": 500,
        "exposure_zone": "Secondary Vector & Human Transmission Reach (500m)"
      },
      "geometry": {
        "type": "Polygon",
        "coordinates": [
          [
            [
              79.98284,
              14.495621
            ],
            [
              79.982682,
              14.496791
            ],
            [
              79.982219,
              14.497882
            ],
            [
              79.981482,
              14.498818
            ],
            [
              79.980521,
              14.499537
            ],
            [
              79.979402,
              14.499989
            ],
            [
              79.978202,
              14.500143
            ],
            [
              79.977002,
              14.499989
            ],
            [
              79.975883,
              14.499537
            ],
            [
              79.974922,
              14.498818
            ],
            [
              79.974185,
              14.497882
            ],
            [
              79.973722,
              14.496791
            ],
            [
              79.973564,
              14.495621
            ],
            [
              79.973722,
              14.494451
            ],
            [
              79.974185,
              14.49336
            ],
            [
              79.974922,
              14.492424
            ],
            [
              79.975883,
              14.491705
            ],
            [
              79.977002,
              14.491253
            ],
            [
              79.978202,
              14.491099
            ],
            [
              79.979402,
              14.491253
            ],
            [
              79.980521,
              14.491705
            ],
            [
              79.981482,
              14.492424
            ],
            [
              79.982219,
              14.49336
            ],
            [
              79.982682,
              14.494451
            ],
            [
              79.98284,
              14.495621
            ]
          ]
        ]
      }
    },
    {
      "type": "Feature",
      "properties": {
        "shop_id": "NLR-HLTH-062",
        "shop_name": "Star Fish Stall (Kovur)",
        "risk_level": "High Risk",
        "buffer_radius_m": 500,
        "exposure_zone": "Secondary Vector & Human Transmission Reach (500m)"
      },
      "geometry": {
        "type": "Polygon",
        "coordinates": [
          [
            [
              79.984318,
              14.494622
            ],
            [
              79.98416,
              14.495792
            ],
            [
              79.983697,
              14.496883
            ],
            [
              79.98296,
              14.497819
            ],
            [
              79.981999,
              14.498538
            ],
            [
              79.98088,
              14.49899
            ],
            [
              79.97968,
              14.499144
            ],
            [
              79.97848,
              14.49899
            ],
            [
              79.977361,
              14.498538
            ],
            [
              79.9764,
              14.497819
            ],
            [
              79.975663,
              14.496883
            ],
            [
              79.9752,
              14.495792
            ],
            [
              79.975042,
              14.494622
            ],
            [
              79.9752,
              14.493452
            ],
            [
              79.975663,
              14.492361
            ],
            [
              79.9764,
              14.491425
            ],
            [
              79.977361,
              14.490706
            ],
            [
              79.97848,
              14.490254
            ],
            [
              79.97968,
              14.4901
            ],
            [
              79.98088,
              14.490254
            ],
            [
              79.981999,
              14.490706
            ],
            [
              79.98296,
              14.491425
            ],
            [
              79.983697,
              14.492361
            ],
            [
              79.98416,
              14.493452
            ],
            [
              79.984318,
              14.494622
            ]
          ]
        ]
      }
    },
    {
      "type": "Feature",
      "properties": {
        "shop_id": "NLR-HLTH-064",
        "shop_name": "Sri Venkateswara Mutton Stall (Kovur)",
        "risk_level": "High Risk",
        "buffer_radius_m": 500,
        "exposure_zone": "Secondary Vector & Human Transmission Reach (500m)"
      },
      "geometry": {
        "type": "Polygon",
        "coordinates": [
          [
            [
              79.983055,
              14.494103
            ],
            [
              79.982897,
              14.495273
            ],
            [
              79.982434,
              14.496364
            ],
            [
              79.981697,
              14.4973
            ],
            [
              79.980736,
              14.498019
            ],
            [
              79.979617,
              14.498471
            ],
            [
              79.978417,
              14.498625
            ],
            [
              79.977217,
              14.498471
            ],
            [
              79.976098,
              14.498019
            ],
            [
              79.975137,
              14.4973
            ],
            [
              79.9744,
              14.496364
            ],
            [
              79.973937,
              14.495273
            ],
            [
              79.973779,
              14.494103
            ],
            [
              79.973937,
              14.492933
            ],
            [
              79.9744,
              14.491842
            ],
            [
              79.975137,
              14.490906
            ],
            [
              79.976098,
              14.490187
            ],
            [
              79.977217,
              14.489735
            ],
            [
              79.978417,
              14.489581
            ],
            [
              79.979617,
              14.489735
            ],
            [
              79.980736,
              14.490187
            ],
            [
              79.981697,
              14.490906
            ],
            [
              79.982434,
              14.491842
            ],
            [
              79.982897,
              14.492933
            ],
            [
              79.983055,
              14.494103
            ]
          ]
        ]
      }
    },
    {
      "type": "Feature",
      "properties": {
        "shop_id": "NLR-HLTH-068",
        "shop_name": "Annapurna Fish Stall (Padugupadu)",
        "risk_level": "High Risk",
        "buffer_radius_m": 500,
        "exposure_zone": "Secondary Vector & Human Transmission Reach (500m)"
      },
      "geometry": {
        "type": "Polygon",
        "coordinates": [
          [
            [
              79.989073,
              14.476728
            ],
            [
              79.988915,
              14.477898
            ],
            [
              79.988452,
              14.478989
            ],
            [
              79.987715,
              14.479925
            ],
            [
              79.986754,
              14.480644
            ],
            [
              79.985635,
              14.481096
            ],
            [
              79.984435,
              14.48125
            ],
            [
              79.983235,
              14.481096
            ],
            [
              79.982116,
              14.480644
            ],
            [
              79.981155,
              14.479925
            ],
            [
              79.980418,
              14.478989
            ],
            [
              79.979955,
              14.477898
            ],
            [
              79.979797,
              14.476728
            ],
            [
              79.979955,
              14.475558
            ],
            [
              79.980418,
              14.474467
            ],
            [
              79.981155,
              14.473531
            ],
            [
              79.982116,
              14.472812
            ],
            [
              79.983235,
              14.47236
            ],
            [
              79.984435,
              14.472206
            ],
            [
              79.985635,
              14.47236
            ],
            [
              79.986754,
              14.472812
            ],
            [
              79.987715,
              14.473531
            ],
            [
              79.988452,
              14.474467
            ],
            [
              79.988915,
              14.475558
            ],
            [
              79.989073,
              14.476728
            ]
          ]
        ]
      }
    },
    {
      "type": "Feature",
      "properties": {
        "shop_id": "NLR-HLTH-071",
        "shop_name": "Annapurna Poultry Stall (Padugupadu)",
        "risk_level": "High Risk",
        "buffer_radius_m": 500,
        "exposure_zone": "Secondary Vector & Human Transmission Reach (500m)"
      },
      "geometry": {
        "type": "Polygon",
        "coordinates": [
          [
            [
              79.986337,
              14.474266
            ],
            [
              79.986179,
              14.475436
            ],
            [
              79.985716,
              14.476527
            ],
            [
              79.984979,
              14.477463
            ],
            [
              79.984018,
              14.478182
            ],
            [
              79.982899,
              14.478634
            ],
            [
              79.981699,
              14.478788
            ],
            [
              79.980499,
              14.478634
            ],
            [
              79.97938,
              14.478182
            ],
            [
              79.978419,
              14.477463
            ],
            [
              79.977682,
              14.476527
            ],
            [
              79.977219,
              14.475436
            ],
            [
              79.977061,
              14.474266
            ],
            [
              79.977219,
              14.473096
            ],
            [
              79.977682,
              14.472005
            ],
            [
              79.978419,
              14.471069
            ],
            [
              79.97938,
              14.47035
            ],
            [
              79.980499,
              14.469898
            ],
            [
              79.981699,
              14.469744
            ],
            [
              79.982899,
              14.469898
            ],
            [
              79.984018,
              14.47035
            ],
            [
              79.984979,
              14.471069
            ],
            [
              79.985716,
              14.472005
            ],
            [
              79.986179,
              14.473096
            ],
            [
              79.986337,
              14.474266
            ]
          ]
        ]
      }
    },
    {
      "type": "Feature",
      "properties": {
        "shop_id": "NLR-HLTH-074",
        "shop_name": "Sri Venkateswara Mutton Stall (Inamadugu)",
        "risk_level": "High Risk",
        "buffer_radius_m": 500,
        "exposure_zone": "Secondary Vector & Human Transmission Reach (500m)"
      },
      "geometry": {
        "type": "Polygon",
        "coordinates": [
          [
            [
              80.006085,
              14.491223
            ],
            [
              80.005927,
              14.492393
            ],
            [
              80.005464,
              14.493484
            ],
            [
              80.004727,
              14.49442
            ],
            [
              80.003766,
              14.495139
            ],
            [
              80.002647,
              14.495591
            ],
            [
              80.001447,
              14.495745
            ],
            [
              80.000247,
              14.495591
            ],
            [
              79.999128,
              14.495139
            ],
            [
              79.998167,
              14.49442
            ],
            [
              79.99743,
              14.493484
            ],
            [
              79.996967,
              14.492393
            ],
            [
              79.996809,
              14.491223
            ],
            [
              79.996967,
              14.490053
            ],
            [
              79.99743,
              14.488962
            ],
            [
              79.998167,
              14.488026
            ],
            [
              79.999128,
              14.487307
            ],
            [
              80.000247,
              14.486855
            ],
            [
              80.001447,
              14.486701
            ],
            [
              80.002647,
              14.486855
            ],
            [
              80.003766,
              14.487307
            ],
            [
              80.004727,
              14.488026
            ],
            [
              80.005464,
              14.488962
            ],
            [
              80.005927,
              14.490053
            ],
            [
              80.006085,
              14.491223
            ]
          ]
        ]
      }
    },
    {
      "type": "Feature",
      "properties": {
        "shop_id": "NLR-HLTH-078",
        "shop_name": "Sai Krupa Mutton Stall (Inamadugu)",
        "risk_level": "High Risk",
        "buffer_radius_m": 500,
        "exposure_zone": "Secondary Vector & Human Transmission Reach (500m)"
      },
      "geometry": {
        "type": "Polygon",
        "coordinates": [
          [
            [
              80.007749,
              14.493318
            ],
            [
              80.007591,
              14.494488
            ],
            [
              80.007128,
              14.495579
            ],
            [
              80.006391,
              14.496515
            ],
            [
              80.00543,
              14.497234
            ],
            [
              80.004311,
              14.497686
            ],
            [
              80.003111,
              14.49784
            ],
            [
              80.001911,
              14.497686
            ],
            [
              80.000792,
              14.497234
            ],
            [
              79.999831,
              14.496515
            ],
            [
              79.999094,
              14.495579
            ],
            [
              79.998631,
              14.494488
            ],
            [
              79.998473,
              14.493318
            ],
            [
              79.998631,
              14.492148
            ],
            [
              79.999094,
              14.491057
            ],
            [
              79.999831,
              14.490121
            ],
            [
              80.000792,
              14.489402
            ],
            [
              80.001911,
              14.48895
            ],
            [
              80.003111,
              14.488796
            ],
            [
              80.004311,
              14.48895
            ],
            [
              80.00543,
              14.489402
            ],
            [
              80.006391,
              14.490121
            ],
            [
              80.007128,
              14.491057
            ],
            [
              80.007591,
              14.492148
            ],
            [
              80.007749,
              14.493318
            ]
          ]
        ]
      }
    },
    {
      "type": "Feature",
      "properties": {
        "shop_id": "NLR-HLTH-079",
        "shop_name": "Al-Madina Poultry Stall (Inamadugu)",
        "risk_level": "High Risk",
        "buffer_radius_m": 500,
        "exposure_zone": "Secondary Vector & Human Transmission Reach (500m)"
      },
      "geometry": {
        "type": "Polygon",
        "coordinates": [
          [
            [
              80.006475,
              14.492116
            ],
            [
              80.006317,
              14.493286
            ],
            [
              80.005854,
              14.494377
            ],
            [
              80.005117,
              14.495313
            ],
            [
              80.004156,
              14.496032
            ],
            [
              80.003037,
              14.496484
            ],
            [
              80.001837,
              14.496638
            ],
            [
              80.000637,
              14.496484
            ],
            [
              79.999518,
              14.496032
            ],
            [
              79.998557,
              14.495313
            ],
            [
              79.99782,
              14.494377
            ],
            [
              79.997357,
              14.493286
            ],
            [
              79.997199,
              14.492116
            ],
            [
              79.997357,
              14.490946
            ],
            [
              79.99782,
              14.489855
            ],
            [
              79.998557,
              14.488919
            ],
            [
              79.999518,
              14.4882
            ],
            [
              80.000637,
              14.487748
            ],
            [
              80.001837,
              14.487594
            ],
            [
              80.003037,
              14.487748
            ],
            [
              80.004156,
              14.4882
            ],
            [
              80.005117,
              14.488919
            ],
            [
              80.005854,
              14.489855
            ],
            [
              80.006317,
              14.490946
            ],
            [
              80.006475,
              14.492116
            ]
          ]
        ]
      }
    }
  ]
}